{
  "features": [
    {
      "geometry": {
        "coordinates": [
          3.724045,
          51.002026
        ],
        "type": "Point"
      },
      "properties": {},
      "type": "Feature"
    },
    {
      "geometry": {
        "coordinates": [
          [
            3.723722,
            51.001731
          ],
          [
            3.723396,
            51.001378
          ],
          [
            3.723139,
            51.001069
          ],
          [
            3.722908,
            51.000762
          ],
          [
            3.722682,
            51.00041
          ],
          [
            3.72253,
            51.000124
          ],
          [
            3.722367,
            50.999774
          ],
          [
            3.722289,
            50.999564
          ],
          [
            3.722205,
            50.99928
          ],
          [
            3.722136,
            50.998968
          ],
          [
            3.722074,
            50.998571
          ],
          [
            3.72206,
            50.998311
          ],
          [
            3.722082,
            50.997736
          ],
          [
            3.722163,
            50.997145
          ],
          [
            3.722287,
            50.996587
          ],
          [
            3.722427,
            50.996032
          ],
          [
            3.722861,
            50.994384
          ],
          [
            3.7229,
            50.994186
          ],
          [
            3.722932,
            50.993899
          ],
          [
            3.722944,
            50.993652
          ],
          [
            3.722934,
            50.993358
          ],
          [
            3.722896,
            50.993008
          ],
          [
            3.722801,
            50.992509
          ],
          [
            3.722716,
            50.992259
          ],
          [
            3.722591,
            50.99196
          ],
          [
            3.722445,
            50.991666
          ],
          [
            3.72227,
            50.991356
          ],
          [
            3.722021,
            50.990982
          ],
          [
            3.721806,
            50.990684
          ],
          [
            3.721592,
            50.990408
          ],
          [
            3.720953,
            50.989759
          ],
          [
            3.717471,
            50.985871
          ],
          [
            3.71707,
            50.985436
          ],
          [
            3.716031,
            50.984357
          ],
          [
            3.715119,
            50.983467
          ],
          [
            3.714354,
            50.982773
          ],
          [
            3.713346,
            50.981896
          ],
          [
            3.71202,
            50.980831
          ],
          [
            3.710994,
            50.98005
          ],
          [
            3.708918,
            50.97861
          ],
          [
            3.703947,
            50.975245
          ],
          [
            3.703157,
            50.974693
          ],
          [
            3.70282,
            50.974436
          ],
          [
            3.702365,
            50.974044
          ],
          [
            3.702082,
            50.973771
          ],
          [
            3.701682,
            50.973328
          ],
          [
            3.701337,
            50.972891
          ],
          [
            3.700994,
            50.972368
          ],
          [
            3.700592,
            50.971675
          ],
          [
            3.700415,
            50.971391
          ],
          [
            3.700048,
            50.970854
          ],
          [
            3.699565,
            50.970214
          ],
          [
            3.699272,
            50.969872
          ],
          [
            3.699013,
            50.969601
          ],
          [
            3.69873,
            50.969356
          ],
          [
            3.69827,
            50.968995
          ],
          [
            3.697994,
            50.968792
          ],
          [
            3.697569,
            50.968506
          ],
          [
            3.697094,
            50.968238
          ],
          [
            3.69662,
            50.967996
          ],
          [
            3.696195,
            50.9678
          ],
          [
            3.695304,
            50.967448
          ],
          [
            3.694613,
            50.967191
          ],
          [
            3.692938,
            50.96659
          ],
          [
            3.692211,
            50.966294
          ],
          [
            3.691534,
            50.965986
          ],
          [
            3.69094,
            50.965669
          ],
          [
            3.690637,
            50.965492
          ],
          [
            3.690032,
            50.965093
          ],
          [
            3.689641,
            50.96481
          ],
          [
            3.689419,
            50.964636
          ],
          [
            3.688936,
            50.964208
          ],
          [
            3.688424,
            50.963667
          ],
          [
            3.688111,
            50.963272
          ],
          [
            3.687797,
            50.962813
          ],
          [
            3.687572,
            50.962407
          ],
          [
            3.687378,
            50.961983
          ],
          [
            3.687203,
            50.961552
          ],
          [
            3.686708,
            50.960229
          ],
          [
            3.686344,
            50.959466
          ],
          [
            3.686163,
            50.959136
          ],
          [
            3.685907,
            50.958753
          ],
          [
            3.685673,
            50.958448
          ],
          [
            3.685467,
            50.958202
          ],
          [
            3.685231,
            50.957948
          ],
          [
            3.684587,
            50.957359
          ],
          [
            3.684057,
            50.956953
          ],
          [
            3.683833,
            50.956803
          ],
          [
            3.683594,
            50.956656
          ],
          [
            3.683261,
            50.956464
          ],
          [
            3.682905,
            50.95627
          ],
          [
            3.682146,
            50.955909
          ],
          [
            3.681823,
            50.955779
          ],
          [
            3.68124,
            50.955564
          ],
          [
            3.679753,
            50.955099
          ],
          [
            3.678642,
            50.954809
          ],
          [
            3.67782,
            50.954613
          ],
          [
            3.676934,
            50.954427
          ],
          [
            3.675883,
            50.954247
          ],
          [
            3.675363,
            50.954175
          ],
          [
            3.674833,
            50.954127
          ],
          [
            3.674179,
            50.954088
          ],
          [
            3.673845,
            50.954077
          ],
          [
            3.673226,
            50.954072
          ],
          [
            3.672299,
            50.954104
          ],
          [
            3.671956,
            50.954131
          ],
          [
            3.671428,
            50.954185
          ],
          [
            3.670431,
            50.954342
          ],
          [
            3.669945,
            50.954442
          ],
          [
            3.669304,
            50.954595
          ],
          [
            3.66863,
            50.954791
          ],
          [
            3.668038,
            50.954998
          ],
          [
            3.666331,
            50.955655
          ],
          [
            3.665841,
            50.955832
          ],
          [
            3.665192,
            50.956039
          ],
          [
            3.664521,
            50.956215
          ],
          [
            3.663741,
            50.956386
          ],
          [
            3.662905,
            50.95653
          ],
          [
            3.662555,
            50.95658
          ],
          [
            3.661571,
            50.956692
          ],
          [
            3.660828,
            50.956718
          ],
          [
            3.659884,
            50.956715
          ],
          [
            3.658893,
            50.956672
          ],
          [
            3.658167,
            50.956614
          ],
          [
            3.657807,
            50.956639
          ],
          [
            3.657682,
            50.956636
          ],
          [
            3.656991,
            50.956529
          ],
          [
            3.65651,
            50.956436
          ],
          [
            3.656201,
            50.956371
          ],
          [
            3.655713,
            50.956248
          ],
          [
            3.655394,
            50.956051
          ],
          [
            3.655188,
            50.955956
          ],
          [
            3.654692,
            50.955816
          ],
          [
            3.654186,
            50.955684
          ],
          [
            3.653326,
            50.955438
          ],
          [
            3.653021,
            50.955331
          ],
          [
            3.652699,
            50.955232
          ],
          [
            3.651928,
            50.954942
          ],
          [
            3.651567,
            50.954784
          ],
          [
            3.651207,
            50.954593
          ],
          [
            3.650793,
            50.954361
          ],
          [
            3.650392,
            50.954113
          ],
          [
            3.649794,
            50.953703
          ],
          [
            3.649282,
            50.95329
          ],
          [
            3.648902,
            50.952946
          ],
          [
            3.648736,
            50.952777
          ],
          [
            3.648363,
            50.952369
          ],
          [
            3.64815,
            50.952101
          ],
          [
            3.647949,
            50.951829
          ],
          [
            3.647497,
            50.951068
          ],
          [
            3.647409,
            50.950877
          ],
          [
            3.64719,
            50.950301
          ],
          [
            3.647068,
            50.949832
          ],
          [
            3.647016,
            50.949544
          ],
          [
            3.646971,
            50.949151
          ],
          [
            3.646982,
            50.94849
          ],
          [
            3.647058,
            50.947929
          ],
          [
            3.647091,
            50.947767
          ],
          [
            3.647258,
            50.947185
          ],
          [
            3.647336,
            50.94695
          ],
          [
            3.648626,
            50.943766
          ],
          [
            3.648749,
            50.943413
          ],
          [
            3.648846,
            50.943093
          ],
          [
            3.648994,
            50.942497
          ],
          [
            3.649126,
            50.941635
          ],
          [
            3.649269,
            50.941085
          ],
          [
            3.649266,
            50.940014
          ],
          [
            3.6493,
            50.93939
          ],
          [
            3.649334,
            50.939074
          ],
          [
            3.649385,
            50.938777
          ],
          [
            3.649459,
            50.93847
          ],
          [
            3.649541,
            50.938193
          ],
          [
            3.649635,
            50.937922
          ],
          [
            3.649934,
            50.937311
          ],
          [
            3.650252,
            50.936791
          ],
          [
            3.65087,
            50.935973
          ],
          [
            3.650905,
            50.935881
          ],
          [
            3.651005,
            50.935493
          ],
          [
            3.651175,
            50.935264
          ],
          [
            3.651685,
            50.934621
          ],
          [
            3.65186,
            50.934368
          ],
          [
            3.652038,
            50.934087
          ],
          [
            3.652461,
            50.933263
          ],
          [
            3.65275,
            50.932966
          ],
          [
            3.652825,
            50.932855
          ],
          [
            3.652886,
            50.932686
          ],
          [
            3.652985,
            50.932064
          ],
          [
            3.653176,
            50.930614
          ],
          [
            3.653289,
            50.930124
          ],
          [
            3.653507,
            50.92953
          ],
          [
            3.653723,
            50.92908
          ],
          [
            3.653981,
            50.928633
          ],
          [
            3.654146,
            50.928391
          ],
          [
            3.654531,
            50.927877
          ],
          [
            3.655436,
            50.926936
          ],
          [
            3.655959,
            50.926355
          ],
          [
            3.656374,
            50.925845
          ],
          [
            3.656558,
            50.925581
          ],
          [
            3.656666,
            50.925402
          ],
          [
            3.656941,
            50.924803
          ],
          [
            3.657377,
            50.923662
          ],
          [
            3.657697,
            50.922883
          ],
          [
            3.657889,
            50.922498
          ],
          [
            3.658122,
            50.922117
          ],
          [
            3.658424,
            50.921696
          ],
          [
            3.658997,
            50.920996
          ],
          [
            3.659266,
            50.920717
          ],
          [
            3.659471,
            50.920526
          ],
          [
            3.660269,
            50.919852
          ],
          [
            3.660645,
            50.919569
          ],
          [
            3.660978,
            50.919334
          ],
          [
            3.661405,
            50.919053
          ],
          [
            3.662305,
            50.918534
          ],
          [
            3.663199,
            50.918105
          ],
          [
            3.664134,
            50.917681
          ],
          [
            3.664786,
            50.917409
          ],
          [
            3.665235,
            50.917312
          ],
          [
            3.665688,
            50.917115
          ],
          [
            3.665962,
            50.916978
          ],
          [
            3.666521,
            50.91673
          ],
          [
            3.666717,
            50.916697
          ],
          [
            3.667225,
            50.916463
          ],
          [
            3.667521,
            50.916308
          ],
          [
            3.668345,
            50.915768
          ],
          [
            3.668488,
            50.915686
          ],
          [
            3.669569,
            50.915171
          ],
          [
            3.670312,
            50.914837
          ],
          [
            3.671181,
            50.914507
          ],
          [
            3.671559,
            50.914384
          ],
          [
            3.67234,
            50.914163
          ],
          [
            3.673139,
            50.913985
          ],
          [
            3.676092,
            50.913402
          ],
          [
            3.67688,
            50.913228
          ],
          [
            3.677691,
            50.913024
          ],
          [
            3.678534,
            50.912783
          ],
          [
            3.679145,
            50.912579
          ],
          [
            3.679487,
            50.91245
          ],
          [
            3.679895,
            50.912282
          ],
          [
            3.680344,
            50.91207
          ],
          [
            3.680749,
            50.911858
          ],
          [
            3.681214,
            50.911593
          ],
          [
            3.681669,
            50.911298
          ],
          [
            3.681976,
            50.911077
          ],
          [
            3.682505,
            50.910649
          ],
          [
            3.683116,
            50.910088
          ],
          [
            3.683731,
            50.90945
          ],
          [
            3.684131,
            50.908989
          ],
          [
            3.684415,
            50.908627
          ],
          [
            3.684837,
            50.908004
          ],
          [
            3.685167,
            50.907441
          ],
          [
            3.68542,
            50.906922
          ],
          [
            3.685642,
            50.906387
          ],
          [
            3.685781,
            50.905982
          ],
          [
            3.685916,
            50.905482
          ],
          [
            3.686034,
            50.904891
          ],
          [
            3.686083,
            50.904501
          ],
          [
            3.686109,
            50.903866
          ],
          [
            3.6861,
            50.90344
          ],
          [
            3.686057,
            50.902885
          ],
          [
            3.686018,
            50.902613
          ],
          [
            3.68596,
            50.902313
          ],
          [
            3.685869,
            50.901937
          ],
          [
            3.685715,
            50.901412
          ],
          [
            3.685523,
            50.900903
          ],
          [
            3.685347,
            50.900518
          ],
          [
            3.685157,
            50.900143
          ],
          [
            3.684971,
            50.899817
          ],
          [
            3.684638,
            50.899303
          ],
          [
            3.684217,
            50.89872
          ],
          [
            3.683731,
            50.898122
          ],
          [
            3.681987,
            50.896065
          ],
          [
            3.680461,
            50.894301
          ],
          [
            3.680157,
            50.894015
          ],
          [
            3.679862,
            50.893776
          ],
          [
            3.679744,
            50.893703
          ],
          [
            3.679615,
            50.893588
          ],
          [
            3.679282,
            50.893341
          ],
          [
            3.679166,
            50.893276
          ],
          [
            3.679041,
            50.893175
          ],
          [
            3.678626,
            50.892904
          ],
          [
            3.678194,
            50.892652
          ],
          [
            3.677707,
            50.8924
          ],
          [
            3.677149,
            50.892143
          ],
          [
            3.676639,
            50.891942
          ],
          [
            3.676311,
            50.891824
          ],
          [
            3.67558,
            50.891585
          ],
          [
            3.675312,
            50.891505
          ],
          [
            3.674746,
            50.891355
          ],
          [
            3.674279,
            50.891251
          ],
          [
            3.673128,
            50.891025
          ],
          [
            3.67253,
            50.89091
          ],
          [
            3.67099,
            50.890669
          ],
          [
            3.670156,
            50.890509
          ],
          [
            3.669638,
            50.890393
          ],
          [
            3.669159,
            50.890265
          ],
          [
            3.668773,
            50.890146
          ],
          [
            3.668031,
            50.889886
          ],
          [
            3.667631,
            50.889725
          ],
          [
            3.667234,
            50.889547
          ],
          [
            3.665549,
            50.88875
          ],
          [
            3.663702,
            50.887906
          ],
          [
            3.663236,
            50.887725
          ],
          [
            3.66271,
            50.887543
          ],
          [
            3.662194,
            50.887387
          ],
          [
            3.661459,
            50.887197
          ],
          [
            3.660458,
            50.887003
          ],
          [
            3.660033,
            50.886943
          ],
          [
            3.659744,
            50.886913
          ],
          [
            3.658872,
            50.886832
          ],
          [
            3.658501,
            50.886813
          ],
          [
            3.656306,
            50.886801
          ],
          [
            3.65392,
            50.886833
          ],
          [
            3.653094,
            50.886823
          ],
          [
            3.652704,
            50.886798
          ],
          [
            3.65171,
            50.886708
          ],
          [
            3.650753,
            50.886595
          ],
          [
            3.646733,
            50.886025
          ],
          [
            3.64585,
            50.885882
          ],
          [
            3.645239,
            50.885768
          ],
          [
            3.644341,
            50.885567
          ],
          [
            3.643924,
            50.885462
          ],
          [
            3.643117,
            50.885232
          ],
          [
            3.64261,
            50.885066
          ],
          [
            3.64165,
            50.884715
          ],
          [
            3.639438,
            50.883773
          ],
          [
            3.634248,
            50.881554
          ],
          [
            3.632978,
            50.880983
          ],
          [
            3.632251,
            50.880569
          ],
          [
            3.631765,
            50.880261
          ],
          [
            3.631321,
            50.879941
          ],
          [
            3.630799,
            50.879514
          ],
          [
            3.630558,
            50.879295
          ],
          [
            3.630292,
            50.879034
          ],
          [
            3.630045,
            50.878772
          ],
          [
            3.629688,
            50.87833
          ],
          [
            3.629508,
            50.878076
          ],
          [
            3.628613,
            50.876731
          ],
          [
            3.627768,
            50.87544
          ],
          [
            3.627521,
            50.874994
          ],
          [
            3.6273,
            50.874517
          ],
          [
            3.627169,
            50.874146
          ],
          [
            3.627062,
            50.873763
          ],
          [
            3.626988,
            50.873365
          ],
          [
            3.626946,
            50.87301
          ],
          [
            3.626926,
            50.872459
          ],
          [
            3.626953,
            50.872153
          ],
          [
            3.626997,
            50.871861
          ],
          [
            3.627072,
            50.871489
          ],
          [
            3.627031,
            50.871342
          ],
          [
            3.627031,
            50.871342
          ],
          [
            3.627031,
            50.871342
          ],
          [
            3.627072,
            50.871489
          ],
          [
            3.626997,
            50.871861
          ],
          [
            3.626953,
            50.872153
          ],
          [
            3.626926,
            50.872459
          ],
          [
            3.626946,
            50.87301
          ],
          [
            3.626988,
            50.873365
          ],
          [
            3.627062,
            50.873763
          ],
          [
            3.627169,
            50.874146
          ],
          [
            3.6273,
            50.874517
          ],
          [
            3.627521,
            50.874994
          ],
          [
            3.627768,
            50.87544
          ],
          [
            3.629508,
            50.878076
          ],
          [
            3.629688,
            50.87833
          ],
          [
            3.630045,
            50.878772
          ],
          [
            3.630292,
            50.879034
          ],
          [
            3.630558,
            50.879295
          ],
          [
            3.630799,
            50.879514
          ],
          [
            3.631321,
            50.879941
          ],
          [
            3.631765,
            50.880261
          ],
          [
            3.632251,
            50.880569
          ],
          [
            3.632978,
            50.880983
          ],
          [
            3.634248,
            50.881554
          ],
          [
            3.64165,
            50.884715
          ],
          [
            3.64261,
            50.885066
          ],
          [
            3.643117,
            50.885232
          ],
          [
            3.643924,
            50.885462
          ],
          [
            3.644341,
            50.885567
          ],
          [
            3.645239,
            50.885768
          ],
          [
            3.64585,
            50.885882
          ],
          [
            3.646733,
            50.886025
          ],
          [
            3.650753,
            50.886595
          ],
          [
            3.65171,
            50.886708
          ],
          [
            3.652704,
            50.886798
          ],
          [
            3.653094,
            50.886823
          ],
          [
            3.65392,
            50.886833
          ],
          [
            3.656306,
            50.886801
          ],
          [
            3.658501,
            50.886813
          ],
          [
            3.658872,
            50.886832
          ],
          [
            3.659744,
            50.886913
          ],
          [
            3.660033,
            50.886943
          ],
          [
            3.660458,
            50.887003
          ],
          [
            3.661459,
            50.887197
          ],
          [
            3.662194,
            50.887387
          ],
          [
            3.66271,
            50.887543
          ],
          [
            3.663236,
            50.887725
          ],
          [
            3.663702,
            50.887906
          ],
          [
            3.665549,
            50.88875
          ],
          [
            3.667234,
            50.889547
          ],
          [
            3.667631,
            50.889725
          ],
          [
            3.668031,
            50.889886
          ],
          [
            3.668773,
            50.890146
          ],
          [
            3.669159,
            50.890265
          ],
          [
            3.669638,
            50.890393
          ],
          [
            3.670156,
            50.890509
          ],
          [
            3.67099,
            50.890669
          ],
          [
            3.67253,
            50.89091
          ],
          [
            3.674279,
            50.891251
          ],
          [
            3.674746,
            50.891355
          ],
          [
            3.675312,
            50.891505
          ],
          [
            3.67558,
            50.891585
          ],
          [
            3.676311,
            50.891824
          ],
          [
            3.676639,
            50.891942
          ],
          [
            3.677149,
            50.892143
          ],
          [
            3.6776,
            50.892351
          ],
          [
            3.678194,
            50.892652
          ],
          [
            3.678626,
            50.892904
          ],
          [
            3.679041,
            50.893175
          ],
          [
            3.679166,
            50.893276
          ],
          [
            3.679282,
            50.893341
          ],
          [
            3.679615,
            50.893588
          ],
          [
            3.679744,
            50.893703
          ],
          [
            3.679862,
            50.893776
          ],
          [
            3.680157,
            50.894015
          ],
          [
            3.680461,
            50.894301
          ],
          [
            3.681987,
            50.896065
          ],
          [
            3.683731,
            50.898122
          ],
          [
            3.684217,
            50.89872
          ],
          [
            3.684374,
            50.898931
          ],
          [
            3.684638,
            50.899303
          ],
          [
            3.684971,
            50.899817
          ],
          [
            3.685157,
            50.900143
          ],
          [
            3.685347,
            50.900518
          ],
          [
            3.685523,
            50.900903
          ],
          [
            3.685715,
            50.901412
          ],
          [
            3.685869,
            50.901937
          ],
          [
            3.68596,
            50.902313
          ],
          [
            3.686018,
            50.902613
          ],
          [
            3.686057,
            50.902885
          ],
          [
            3.6861,
            50.90344
          ],
          [
            3.686109,
            50.903866
          ],
          [
            3.686083,
            50.904501
          ],
          [
            3.686034,
            50.904891
          ],
          [
            3.685916,
            50.905482
          ],
          [
            3.685781,
            50.905982
          ],
          [
            3.685642,
            50.906387
          ],
          [
            3.68542,
            50.906922
          ],
          [
            3.685167,
            50.907441
          ],
          [
            3.684837,
            50.908004
          ],
          [
            3.684415,
            50.908627
          ],
          [
            3.684131,
            50.908989
          ],
          [
            3.683731,
            50.90945
          ],
          [
            3.683116,
            50.910088
          ],
          [
            3.682505,
            50.910649
          ],
          [
            3.681976,
            50.911077
          ],
          [
            3.681669,
            50.911298
          ],
          [
            3.681214,
            50.911593
          ],
          [
            3.680749,
            50.911858
          ],
          [
            3.680344,
            50.91207
          ],
          [
            3.679895,
            50.912282
          ],
          [
            3.679487,
            50.91245
          ],
          [
            3.679145,
            50.912579
          ],
          [
            3.678534,
            50.912783
          ],
          [
            3.677691,
            50.913024
          ],
          [
            3.67688,
            50.913228
          ],
          [
            3.676092,
            50.913402
          ],
          [
            3.673139,
            50.913985
          ],
          [
            3.67234,
            50.914163
          ],
          [
            3.671559,
            50.914384
          ],
          [
            3.671181,
            50.914507
          ],
          [
            3.670312,
            50.914837
          ],
          [
            3.669569,
            50.915171
          ],
          [
            3.668488,
            50.915686
          ],
          [
            3.668345,
            50.915768
          ],
          [
            3.667521,
            50.916308
          ],
          [
            3.667225,
            50.916463
          ],
          [
            3.666717,
            50.916697
          ],
          [
            3.666521,
            50.91673
          ],
          [
            3.665962,
            50.916978
          ],
          [
            3.665688,
            50.917115
          ],
          [
            3.665235,
            50.917312
          ],
          [
            3.664786,
            50.917409
          ],
          [
            3.664134,
            50.917681
          ],
          [
            3.663199,
            50.918105
          ],
          [
            3.662305,
            50.918534
          ],
          [
            3.661405,
            50.919053
          ],
          [
            3.660978,
            50.919334
          ],
          [
            3.660645,
            50.919569
          ],
          [
            3.660269,
            50.919852
          ],
          [
            3.659471,
            50.920526
          ],
          [
            3.659266,
            50.920717
          ],
          [
            3.658997,
            50.920996
          ],
          [
            3.658424,
            50.921696
          ],
          [
            3.658122,
            50.922117
          ],
          [
            3.657889,
            50.922498
          ],
          [
            3.657697,
            50.922883
          ],
          [
            3.657377,
            50.923662
          ],
          [
            3.656941,
            50.924803
          ],
          [
            3.656666,
            50.925402
          ],
          [
            3.656558,
            50.925581
          ],
          [
            3.656374,
            50.925845
          ],
          [
            3.655959,
            50.926355
          ],
          [
            3.655436,
            50.926936
          ],
          [
            3.654531,
            50.927877
          ],
          [
            3.654146,
            50.928391
          ],
          [
            3.653981,
            50.928633
          ],
          [
            3.653723,
            50.92908
          ],
          [
            3.653507,
            50.92953
          ],
          [
            3.653289,
            50.930124
          ],
          [
            3.653176,
            50.930614
          ],
          [
            3.652985,
            50.932064
          ],
          [
            3.652886,
            50.932686
          ],
          [
            3.652825,
            50.932855
          ],
          [
            3.65275,
            50.932966
          ],
          [
            3.652461,
            50.933263
          ],
          [
            3.652038,
            50.934087
          ],
          [
            3.65186,
            50.934368
          ],
          [
            3.651685,
            50.934621
          ],
          [
            3.651175,
            50.935264
          ],
          [
            3.651005,
            50.935493
          ],
          [
            3.650905,
            50.935881
          ],
          [
            3.65087,
            50.935973
          ],
          [
            3.650252,
            50.936791
          ],
          [
            3.649934,
            50.937311
          ],
          [
            3.649635,
            50.937922
          ],
          [
            3.649541,
            50.938193
          ],
          [
            3.649459,
            50.93847
          ],
          [
            3.649385,
            50.938777
          ],
          [
            3.649334,
            50.939074
          ],
          [
            3.6493,
            50.93939
          ],
          [
            3.649266,
            50.940014
          ],
          [
            3.649269,
            50.941085
          ],
          [
            3.649126,
            50.941635
          ],
          [
            3.648994,
            50.942497
          ],
          [
            3.648846,
            50.943093
          ],
          [
            3.648749,
            50.943413
          ],
          [
            3.648626,
            50.943766
          ],
          [
            3.647336,
            50.94695
          ],
          [
            3.647258,
            50.947185
          ],
          [
            3.647091,
            50.947767
          ],
          [
            3.647058,
            50.947929
          ],
          [
            3.646982,
            50.94849
          ],
          [
            3.646971,
            50.949151
          ],
          [
            3.647016,
            50.949544
          ],
          [
            3.647068,
            50.949832
          ],
          [
            3.64719,
            50.950301
          ],
          [
            3.647409,
            50.950877
          ],
          [
            3.647497,
            50.951068
          ],
          [
            3.647949,
            50.951829
          ],
          [
            3.64815,
            50.952101
          ],
          [
            3.648363,
            50.952369
          ],
          [
            3.648736,
            50.952777
          ],
          [
            3.648902,
            50.952946
          ],
          [
            3.649282,
            50.95329
          ],
          [
            3.649794,
            50.953703
          ],
          [
            3.650392,
            50.954113
          ],
          [
            3.650793,
            50.954361
          ],
          [
            3.651207,
            50.954593
          ],
          [
            3.651567,
            50.954784
          ],
          [
            3.651928,
            50.954942
          ],
          [
            3.652699,
            50.955232
          ],
          [
            3.653021,
            50.955331
          ],
          [
            3.653326,
            50.955438
          ],
          [
            3.654186,
            50.955684
          ],
          [
            3.654692,
            50.955816
          ],
          [
            3.655188,
            50.955956
          ],
          [
            3.655394,
            50.956051
          ],
          [
            3.655713,
            50.956248
          ],
          [
            3.656201,
            50.956371
          ],
          [
            3.65651,
            50.956436
          ],
          [
            3.656991,
            50.956529
          ],
          [
            3.657682,
            50.956636
          ],
          [
            3.657807,
            50.956639
          ],
          [
            3.658167,
            50.956614
          ],
          [
            3.658893,
            50.956672
          ],
          [
            3.659884,
            50.956715
          ],
          [
            3.660828,
            50.956718
          ],
          [
            3.661571,
            50.956692
          ],
          [
            3.662555,
            50.95658
          ],
          [
            3.662905,
            50.95653
          ],
          [
            3.663741,
            50.956386
          ],
          [
            3.664521,
            50.956215
          ],
          [
            3.665192,
            50.956039
          ],
          [
            3.665841,
            50.955832
          ],
          [
            3.666331,
            50.955655
          ],
          [
            3.668038,
            50.954998
          ],
          [
            3.66863,
            50.954791
          ],
          [
            3.669304,
            50.954595
          ],
          [
            3.669945,
            50.954442
          ],
          [
            3.670431,
            50.954342
          ],
          [
            3.671428,
            50.954185
          ],
          [
            3.671956,
            50.954131
          ],
          [
            3.672299,
            50.954104
          ],
          [
            3.673226,
            50.954072
          ],
          [
            3.673845,
            50.954077
          ],
          [
            3.674179,
            50.954088
          ],
          [
            3.674833,
            50.954127
          ],
          [
            3.675363,
            50.954175
          ],
          [
            3.675883,
            50.954247
          ],
          [
            3.676934,
            50.954427
          ],
          [
            3.67782,
            50.954613
          ],
          [
            3.678642,
            50.954809
          ],
          [
            3.679753,
            50.955099
          ],
          [
            3.68124,
            50.955564
          ],
          [
            3.681823,
            50.955779
          ],
          [
            3.682146,
            50.955909
          ],
          [
            3.682905,
            50.95627
          ],
          [
            3.683261,
            50.956464
          ],
          [
            3.683594,
            50.956656
          ],
          [
            3.683833,
            50.956803
          ],
          [
            3.684057,
            50.956953
          ],
          [
            3.684587,
            50.957359
          ],
          [
            3.685231,
            50.957948
          ],
          [
            3.685467,
            50.958202
          ],
          [
            3.685673,
            50.958448
          ],
          [
            3.685907,
            50.958753
          ],
          [
            3.686163,
            50.959136
          ],
          [
            3.686344,
            50.959466
          ],
          [
            3.686708,
            50.960229
          ],
          [
            3.687203,
            50.961552
          ],
          [
            3.687378,
            50.961983
          ],
          [
            3.687572,
            50.962407
          ],
          [
            3.687797,
            50.962813
          ],
          [
            3.688111,
            50.963272
          ],
          [
            3.688424,
            50.963667
          ],
          [
            3.688936,
            50.964208
          ],
          [
            3.689419,
            50.964636
          ],
          [
            3.689641,
            50.96481
          ],
          [
            3.690032,
            50.965093
          ],
          [
            3.690637,
            50.965492
          ],
          [
            3.69094,
            50.965669
          ],
          [
            3.691534,
            50.965986
          ],
          [
            3.692211,
            50.966294
          ],
          [
            3.692938,
            50.96659
          ],
          [
            3.694613,
            50.967191
          ],
          [
            3.695304,
            50.967448
          ],
          [
            3.696195,
            50.9678
          ],
          [
            3.69662,
            50.967996
          ],
          [
            3.697094,
            50.968238
          ],
          [
            3.697569,
            50.968506
          ],
          [
            3.697994,
            50.968792
          ],
          [
            3.69827,
            50.968995
          ],
          [
            3.69873,
            50.969356
          ],
          [
            3.699013,
            50.969601
          ],
          [
            3.699272,
            50.969872
          ],
          [
            3.699565,
            50.970214
          ],
          [
            3.700048,
            50.970854
          ],
          [
            3.700415,
            50.971391
          ],
          [
            3.700592,
            50.971675
          ],
          [
            3.700994,
            50.972368
          ],
          [
            3.701337,
            50.972891
          ],
          [
            3.701682,
            50.973328
          ],
          [
            3.702082,
            50.973771
          ],
          [
            3.702365,
            50.974044
          ],
          [
            3.70282,
            50.974436
          ],
          [
            3.703157,
            50.974693
          ],
          [
            3.703947,
            50.975245
          ],
          [
            3.708918,
            50.97861
          ],
          [
            3.710994,
            50.98005
          ],
          [
            3.71202,
            50.980831
          ],
          [
            3.713346,
            50.981896
          ],
          [
            3.714354,
            50.982773
          ],
          [
            3.715119,
            50.983467
          ],
          [
            3.716031,
            50.984357
          ],
          [
            3.71707,
            50.985436
          ],
          [
            3.717471,
            50.985871
          ],
          [
            3.720953,
            50.989759
          ],
          [
            3.721592,
            50.990408
          ],
          [
            3.721806,
            50.990684
          ],
          [
            3.722021,
            50.990982
          ],
          [
            3.72227,
            50.991356
          ],
          [
            3.722445,
            50.991666
          ],
          [
            3.722591,
            50.99196
          ],
          [
            3.722716,
            50.992259
          ],
          [
            3.722801,
            50.992509
          ],
          [
            3.722896,
            50.993008
          ],
          [
            3.722934,
            50.993358
          ],
          [
            3.722944,
            50.993652
          ],
          [
            3.722932,
            50.993899
          ],
          [
            3.7229,
            50.994186
          ],
          [
            3.722861,
            50.994384
          ],
          [
            3.722427,
            50.996032
          ],
          [
            3.722287,
            50.996587
          ],
          [
            3.722163,
            50.997145
          ],
          [
            3.722082,
            50.997736
          ],
          [
            3.72206,
            50.998311
          ],
          [
            3.722074,
            50.998571
          ],
          [
            3.722136,
            50.998968
          ],
          [
            3.722205,
            50.99928
          ],
          [
            3.722289,
            50.999564
          ],
          [
            3.722367,
            50.999774
          ],
          [
            3.72253,
            51.000124
          ],
          [
            3.722682,
            51.00041
          ],
          [
            3.722908,
            51.000762
          ],
          [
            3.723139,
            51.001069
          ],
          [
            3.723396,
            51.001378
          ],
          [
            3.723677,
            51.001684
          ]
        ],
        "type": "LineString"
      },
      "properties": {
        "name": "sp"
      },
      "type": "Feature"
    }
  ],
  "name": "tracks",
  "type": "FeatureCollection"
}
