<?xml version="1.0" encoding="UTF-8"?>
<gpx creator="https://gpx.studio" version="1.1" xmlns="http://www.topografix.com/GPX/1/1" xmlns:xsi="http://www.w3.org/2001/XMLSchema-instance" xsi:schemaLocation="http://www.topografix.com/GPX/1/1 http://www.topografix.com/GPX/1/1/gpx.xsd http://www.garmin.com/xmlschemas/GpxExtensions/v3 http://www.garmin.com/xmlschemas/GpxExtensionsv3.xsd http://www.garmin.com/xmlschemas/TrackPointExtension/v1 http://www.garmin.com/xmlschemas/TrackPointExtensionv1.xsd http://www.garmin.com/xmlschemas/PowerExtension/v1 http://www.garmin.com/xmlschemas/PowerExtensionv1.xsd http://www.topografix.com/GPX/gpx_style/0/2 http://www.topografix.com/GPX/gpx_style/0/2/gpx_style.xsd" xmlns:gpxtpx="http://www.garmin.com/xmlschemas/TrackPointExtension/v1" xmlns:gpxx="http://www.garmin.com/xmlschemas/GpxExtensions/v3" xmlns:gpxpx="http://www.garmin.com/xmlschemas/PowerExtension/v1" xmlns:gpx_style="http://www.topografix.com/GPX/gpx_style/0/2">
  <metadata>
    <name>sp</name>
    <author>
      <name>gpx.studio</name>
      <link href="https://gpx.studio"/>
    </author>
  </metadata>
  <trk>
    <name>sp</name>
    <trkseg>
      <trkpt lat="51.001731" lon="3.723722">
        <ele>7.16</ele>
      </trkpt>
      <trkpt lat="51.001378" lon="3.723396">
        <ele>7.01</ele>
      </trkpt>
      <trkpt lat="51.001069" lon="3.723139">
        <ele>7.28</ele>
      </trkpt>
      <trkpt lat="51.000762" lon="3.722908">
        <ele>6.85</ele>
      </trkpt>
      <trkpt lat="51.00041" lon="3.722682">
        <ele>6.79</ele>
      </trkpt>
      <trkpt lat="51.000124" lon="3.72253">
        <ele>7.05</ele>
      </trkpt>
      <trkpt lat="50.999774" lon="3.722367">
        <ele>6.99</ele>
      </trkpt>
      <trkpt lat="50.999564" lon="3.722289">
        <ele>6.9</ele>
      </trkpt>
      <trkpt lat="50.99928" lon="3.722205">
        <ele>6.94</ele>
      </trkpt>
      <trkpt lat="50.998968" lon="3.722136">
        <ele>7.21</ele>
      </trkpt>
      <trkpt lat="50.998571" lon="3.722074">
        <ele>7.19</ele>
      </trkpt>
      <trkpt lat="50.998311" lon="3.72206">
        <ele>6.78</ele>
      </trkpt>
      <trkpt lat="50.997736" lon="3.722082">
        <ele>6.65</ele>
      </trkpt>
      <trkpt lat="50.997145" lon="3.722163">
        <ele>7</ele>
      </trkpt>
      <trkpt lat="50.996587" lon="3.722287">
        <ele>6.8</ele>
      </trkpt>
      <trkpt lat="50.996032" lon="3.722427">
        <ele>6.65</ele>
      </trkpt>
      <trkpt lat="50.994384" lon="3.722861">
        <ele>7</ele>
      </trkpt>
      <trkpt lat="50.994186" lon="3.7229">
        <ele>6.9</ele>
      </trkpt>
      <trkpt lat="50.993899" lon="3.722932">
        <ele>6.71</ele>
      </trkpt>
      <trkpt lat="50.993652" lon="3.722944">
        <ele>6.64</ele>
      </trkpt>
      <trkpt lat="50.993358" lon="3.722934">
        <ele>6.7</ele>
      </trkpt>
      <trkpt lat="50.993008" lon="3.722896">
        <ele>6.91</ele>
      </trkpt>
      <trkpt lat="50.992509" lon="3.722801">
        <ele>6.85</ele>
      </trkpt>
      <trkpt lat="50.992259" lon="3.722716">
        <ele>6.96</ele>
      </trkpt>
      <trkpt lat="50.99196" lon="3.722591">
        <ele>6.69</ele>
      </trkpt>
      <trkpt lat="50.991666" lon="3.722445">
        <ele>6.54</ele>
      </trkpt>
      <trkpt lat="50.991356" lon="3.72227">
        <ele>6.58</ele>
      </trkpt>
      <trkpt lat="50.990982" lon="3.722021">
        <ele>7.59</ele>
      </trkpt>
      <trkpt lat="50.990684" lon="3.721806">
        <ele>6.89</ele>
      </trkpt>
      <trkpt lat="50.990408" lon="3.721592">
        <ele>6.65</ele>
      </trkpt>
      <trkpt lat="50.989759" lon="3.720953">
        <ele>7.24</ele>
      </trkpt>
      <trkpt lat="50.985871" lon="3.717471">
        <ele>6.95</ele>
      </trkpt>
      <trkpt lat="50.985436" lon="3.71707">
        <ele>7.66</ele>
      </trkpt>
      <trkpt lat="50.984357" lon="3.716031">
        <ele>7.73</ele>
      </trkpt>
      <trkpt lat="50.983467" lon="3.715119">
        <ele>7.28</ele>
      </trkpt>
      <trkpt lat="50.982773" lon="3.714354">
        <ele>7.49</ele>
      </trkpt>
      <trkpt lat="50.981896" lon="3.713346">
        <ele>6.96</ele>
      </trkpt>
      <trkpt lat="50.980831" lon="3.71202">
        <ele>7.61</ele>
      </trkpt>
      <trkpt lat="50.98005" lon="3.710994">
        <ele>7.28</ele>
      </trkpt>
      <trkpt lat="50.97861" lon="3.708918">
        <ele>7.46</ele>
      </trkpt>
      <trkpt lat="50.975245" lon="3.703947">
        <ele>7</ele>
      </trkpt>
      <trkpt lat="50.974693" lon="3.703157">
        <ele>7.62</ele>
      </trkpt>
      <trkpt lat="50.974436" lon="3.70282">
        <ele>7.43</ele>
      </trkpt>
      <trkpt lat="50.974044" lon="3.702365">
        <ele>7.13</ele>
      </trkpt>
      <trkpt lat="50.973771" lon="3.702082">
        <ele>7.54</ele>
      </trkpt>
      <trkpt lat="50.973328" lon="3.701682">
        <ele>7.53</ele>
      </trkpt>
      <trkpt lat="50.972891" lon="3.701337">
        <ele>7.52</ele>
      </trkpt>
      <trkpt lat="50.972368" lon="3.700994">
        <ele>6.85</ele>
      </trkpt>
      <trkpt lat="50.971675" lon="3.700592">
        <ele>7.14</ele>
      </trkpt>
      <trkpt lat="50.971391" lon="3.700415">
        <ele>7.5</ele>
      </trkpt>
      <trkpt lat="50.970854" lon="3.700048">
        <ele>7.3</ele>
      </trkpt>
      <trkpt lat="50.970214" lon="3.699565">
        <ele>7.48</ele>
      </trkpt>
      <trkpt lat="50.969872" lon="3.699272">
        <ele>7.33</ele>
      </trkpt>
      <trkpt lat="50.969601" lon="3.699013">
        <ele>7.46</ele>
      </trkpt>
      <trkpt lat="50.969356" lon="3.69873">
        <ele>6.98</ele>
      </trkpt>
      <trkpt lat="50.968995" lon="3.69827">
        <ele>7.55</ele>
      </trkpt>
      <trkpt lat="50.968792" lon="3.697994">
        <ele>7.12</ele>
      </trkpt>
      <trkpt lat="50.968506" lon="3.697569">
        <ele>7.79</ele>
      </trkpt>
      <trkpt lat="50.968238" lon="3.697094">
        <ele>7.01</ele>
      </trkpt>
      <trkpt lat="50.967996" lon="3.69662">
        <ele>7.56</ele>
      </trkpt>
      <trkpt lat="50.9678" lon="3.696195">
        <ele>7.08</ele>
      </trkpt>
      <trkpt lat="50.967448" lon="3.695304">
        <ele>7.43</ele>
      </trkpt>
      <trkpt lat="50.967191" lon="3.694613">
        <ele>7.52</ele>
      </trkpt>
      <trkpt lat="50.96659" lon="3.692938">
        <ele>8.06</ele>
      </trkpt>
      <trkpt lat="50.966294" lon="3.692211">
        <ele>7.95</ele>
      </trkpt>
      <trkpt lat="50.965986" lon="3.691534">
        <ele>7.67</ele>
      </trkpt>
      <trkpt lat="50.965669" lon="3.69094">
        <ele>8.31</ele>
      </trkpt>
      <trkpt lat="50.965492" lon="3.690637">
        <ele>8.1</ele>
      </trkpt>
      <trkpt lat="50.965093" lon="3.690032">
        <ele>7.46</ele>
      </trkpt>
      <trkpt lat="50.96481" lon="3.689641">
        <ele>8</ele>
      </trkpt>
      <trkpt lat="50.964636" lon="3.689419">
        <ele>8</ele>
      </trkpt>
      <trkpt lat="50.964208" lon="3.688936">
        <ele>8</ele>
      </trkpt>
      <trkpt lat="50.963667" lon="3.688424">
        <ele>8</ele>
      </trkpt>
      <trkpt lat="50.963272" lon="3.688111">
        <ele>8</ele>
      </trkpt>
      <trkpt lat="50.962813" lon="3.687797">
        <ele>7.51</ele>
      </trkpt>
      <trkpt lat="50.962407" lon="3.687572">
        <ele>7.49</ele>
      </trkpt>
      <trkpt lat="50.961983" lon="3.687378">
        <ele>7.16</ele>
      </trkpt>
      <trkpt lat="50.961552" lon="3.687203">
        <ele>7.56</ele>
      </trkpt>
      <trkpt lat="50.960229" lon="3.686708">
        <ele>7.68</ele>
      </trkpt>
      <trkpt lat="50.959466" lon="3.686344">
        <ele>7.57</ele>
      </trkpt>
      <trkpt lat="50.959136" lon="3.686163">
        <ele>7.52</ele>
      </trkpt>
      <trkpt lat="50.958753" lon="3.685907">
        <ele>7.03</ele>
      </trkpt>
      <trkpt lat="50.958448" lon="3.685673">
        <ele>7.54</ele>
      </trkpt>
      <trkpt lat="50.958202" lon="3.685467">
        <ele>7.44</ele>
      </trkpt>
      <trkpt lat="50.957948" lon="3.685231">
        <ele>7.87</ele>
      </trkpt>
      <trkpt lat="50.957359" lon="3.684587">
        <ele>7.6</ele>
      </trkpt>
      <trkpt lat="50.956953" lon="3.684057">
        <ele>7.38</ele>
      </trkpt>
      <trkpt lat="50.956803" lon="3.683833">
        <ele>7.96</ele>
      </trkpt>
      <trkpt lat="50.956656" lon="3.683594">
        <ele>7.32</ele>
      </trkpt>
      <trkpt lat="50.956464" lon="3.683261">
        <ele>7.85</ele>
      </trkpt>
      <trkpt lat="50.95627" lon="3.682905">
        <ele>7.48</ele>
      </trkpt>
      <trkpt lat="50.955909" lon="3.682146">
        <ele>7.39</ele>
      </trkpt>
      <trkpt lat="50.955779" lon="3.681823">
        <ele>7.43</ele>
      </trkpt>
      <trkpt lat="50.955564" lon="3.68124">
        <ele>7.24</ele>
      </trkpt>
      <trkpt lat="50.955099" lon="3.679753">
        <ele>6.89</ele>
      </trkpt>
      <trkpt lat="50.954809" lon="3.678642">
        <ele>7.31</ele>
      </trkpt>
      <trkpt lat="50.954613" lon="3.67782">
        <ele>7.6</ele>
      </trkpt>
      <trkpt lat="50.954427" lon="3.676934">
        <ele>7.13</ele>
      </trkpt>
      <trkpt lat="50.954247" lon="3.675883">
        <ele>6.99</ele>
      </trkpt>
      <trkpt lat="50.954175" lon="3.675363">
        <ele>7.51</ele>
      </trkpt>
      <trkpt lat="50.954127" lon="3.674833">
        <ele>7.31</ele>
      </trkpt>
      <trkpt lat="50.954088" lon="3.674179">
        <ele>7.91</ele>
      </trkpt>
      <trkpt lat="50.954077" lon="3.673845">
        <ele>7.71</ele>
      </trkpt>
      <trkpt lat="50.954072" lon="3.673226">
        <ele>7.61</ele>
      </trkpt>
      <trkpt lat="50.954104" lon="3.672299">
        <ele>7.1</ele>
      </trkpt>
      <trkpt lat="50.954131" lon="3.671956">
        <ele>6.7</ele>
      </trkpt>
      <trkpt lat="50.954185" lon="3.671428">
        <ele>7.56</ele>
      </trkpt>
      <trkpt lat="50.954342" lon="3.670431">
        <ele>6.61</ele>
      </trkpt>
      <trkpt lat="50.954442" lon="3.669945">
        <ele>7.4</ele>
      </trkpt>
      <trkpt lat="50.954595" lon="3.669304">
        <ele>7.26</ele>
      </trkpt>
      <trkpt lat="50.954791" lon="3.66863">
        <ele>7.21</ele>
      </trkpt>
      <trkpt lat="50.954998" lon="3.668038">
        <ele>6.83</ele>
      </trkpt>
      <trkpt lat="50.955655" lon="3.666331">
        <ele>7.08</ele>
      </trkpt>
      <trkpt lat="50.955832" lon="3.665841">
        <ele>6.77</ele>
      </trkpt>
      <trkpt lat="50.956039" lon="3.665192">
        <ele>7.53</ele>
      </trkpt>
      <trkpt lat="50.956215" lon="3.664521">
        <ele>7.17</ele>
      </trkpt>
      <trkpt lat="50.956386" lon="3.663741">
        <ele>7.29</ele>
      </trkpt>
      <trkpt lat="50.95653" lon="3.662905">
        <ele>6.98</ele>
      </trkpt>
      <trkpt lat="50.95658" lon="3.662555">
        <ele>7.91</ele>
      </trkpt>
      <trkpt lat="50.956692" lon="3.661571">
        <ele>7.97</ele>
      </trkpt>
      <trkpt lat="50.956718" lon="3.660828">
        <ele>7.45</ele>
      </trkpt>
      <trkpt lat="50.956715" lon="3.659884">
        <ele>7.41</ele>
      </trkpt>
      <trkpt lat="50.956672" lon="3.658893">
        <ele>7.63</ele>
      </trkpt>
      <trkpt lat="50.956614" lon="3.658167">
        <ele>7.36</ele>
      </trkpt>
      <trkpt lat="50.956639" lon="3.657807">
        <ele>7.51</ele>
      </trkpt>
      <trkpt lat="50.956636" lon="3.657682">
        <ele>7.46</ele>
      </trkpt>
      <trkpt lat="50.956529" lon="3.656991">
        <ele>7.51</ele>
      </trkpt>
      <trkpt lat="50.956436" lon="3.65651">
        <ele>7.8</ele>
      </trkpt>
      <trkpt lat="50.956371" lon="3.656201">
        <ele>7.72</ele>
      </trkpt>
      <trkpt lat="50.956248" lon="3.655713">
        <ele>8.36</ele>
      </trkpt>
      <trkpt lat="50.956051" lon="3.655394">
        <ele>8.84</ele>
      </trkpt>
      <trkpt lat="50.955956" lon="3.655188">
        <ele>8.5</ele>
      </trkpt>
      <trkpt lat="50.955816" lon="3.654692">
        <ele>8.31</ele>
      </trkpt>
      <trkpt lat="50.955684" lon="3.654186">
        <ele>8.64</ele>
      </trkpt>
      <trkpt lat="50.955438" lon="3.653326">
        <ele>8.06</ele>
      </trkpt>
      <trkpt lat="50.955331" lon="3.653021">
        <ele>7.52</ele>
      </trkpt>
      <trkpt lat="50.955232" lon="3.652699">
        <ele>8.52</ele>
      </trkpt>
      <trkpt lat="50.954942" lon="3.651928">
        <ele>8.2</ele>
      </trkpt>
      <trkpt lat="50.954784" lon="3.651567">
        <ele>7.91</ele>
      </trkpt>
      <trkpt lat="50.954593" lon="3.651207">
        <ele>7.96</ele>
      </trkpt>
      <trkpt lat="50.954361" lon="3.650793">
        <ele>8.03</ele>
      </trkpt>
      <trkpt lat="50.954113" lon="3.650392">
        <ele>8.04</ele>
      </trkpt>
      <trkpt lat="50.953703" lon="3.649794">
        <ele>8.27</ele>
      </trkpt>
      <trkpt lat="50.95329" lon="3.649282">
        <ele>8.05</ele>
      </trkpt>
      <trkpt lat="50.952946" lon="3.648902">
        <ele>7.92</ele>
      </trkpt>
      <trkpt lat="50.952777" lon="3.648736">
        <ele>7.88</ele>
      </trkpt>
      <trkpt lat="50.952369" lon="3.648363">
        <ele>7.38</ele>
      </trkpt>
      <trkpt lat="50.952101" lon="3.64815">
        <ele>7.3</ele>
      </trkpt>
      <trkpt lat="50.951829" lon="3.647949">
        <ele>8.29</ele>
      </trkpt>
      <trkpt lat="50.951068" lon="3.647497">
        <ele>8.34</ele>
      </trkpt>
      <trkpt lat="50.950877" lon="3.647409">
        <ele>8.48</ele>
      </trkpt>
      <trkpt lat="50.950301" lon="3.64719">
        <ele>9</ele>
      </trkpt>
      <trkpt lat="50.949832" lon="3.647068">
        <ele>8.57</ele>
      </trkpt>
      <trkpt lat="50.949544" lon="3.647016">
        <ele>8.91</ele>
      </trkpt>
      <trkpt lat="50.949151" lon="3.646971">
        <ele>8.21</ele>
      </trkpt>
      <trkpt lat="50.94849" lon="3.646982">
        <ele>8</ele>
      </trkpt>
      <trkpt lat="50.947929" lon="3.647058">
        <ele>8.69</ele>
      </trkpt>
      <trkpt lat="50.947767" lon="3.647091">
        <ele>7.79</ele>
      </trkpt>
      <trkpt lat="50.947185" lon="3.647258">
        <ele>8.09</ele>
      </trkpt>
      <trkpt lat="50.94695" lon="3.647336">
        <ele>8.72</ele>
      </trkpt>
      <trkpt lat="50.943766" lon="3.648626">
        <ele>8.31</ele>
      </trkpt>
      <trkpt lat="50.943413" lon="3.648749">
        <ele>8.99</ele>
      </trkpt>
      <trkpt lat="50.943093" lon="3.648846">
        <ele>8.45</ele>
      </trkpt>
      <trkpt lat="50.942497" lon="3.648994">
        <ele>8.59</ele>
      </trkpt>
      <trkpt lat="50.941635" lon="3.649126">
        <ele>8.63</ele>
      </trkpt>
      <trkpt lat="50.941085" lon="3.649269">
        <ele>8.97</ele>
      </trkpt>
      <trkpt lat="50.940014" lon="3.649266">
        <ele>9</ele>
      </trkpt>
      <trkpt lat="50.93939" lon="3.6493">
        <ele>8.62</ele>
      </trkpt>
      <trkpt lat="50.939074" lon="3.649334">
        <ele>8.24</ele>
      </trkpt>
      <trkpt lat="50.938777" lon="3.649385">
        <ele>8.23</ele>
      </trkpt>
      <trkpt lat="50.93847" lon="3.649459">
        <ele>8.77</ele>
      </trkpt>
      <trkpt lat="50.938193" lon="3.649541">
        <ele>8.41</ele>
      </trkpt>
      <trkpt lat="50.937922" lon="3.649635">
        <ele>8.75</ele>
      </trkpt>
      <trkpt lat="50.937311" lon="3.649934">
        <ele>8.76</ele>
      </trkpt>
      <trkpt lat="50.936791" lon="3.650252">
        <ele>8.48</ele>
      </trkpt>
      <trkpt lat="50.935973" lon="3.65087">
        <ele>8.74</ele>
      </trkpt>
      <trkpt lat="50.935881" lon="3.650905">
        <ele>9</ele>
      </trkpt>
      <trkpt lat="50.935493" lon="3.651005">
        <ele>8.9</ele>
      </trkpt>
      <trkpt lat="50.935264" lon="3.651175">
        <ele>8.68</ele>
      </trkpt>
      <trkpt lat="50.934621" lon="3.651685">
        <ele>8.64</ele>
      </trkpt>
      <trkpt lat="50.934368" lon="3.65186">
        <ele>8.92</ele>
      </trkpt>
      <trkpt lat="50.934087" lon="3.652038">
        <ele>8.54</ele>
      </trkpt>
      <trkpt lat="50.933263" lon="3.652461">
        <ele>8.55</ele>
      </trkpt>
      <trkpt lat="50.932966" lon="3.65275">
        <ele>8.74</ele>
      </trkpt>
      <trkpt lat="50.932855" lon="3.652825">
        <ele>8.31</ele>
      </trkpt>
      <trkpt lat="50.932686" lon="3.652886">
        <ele>8.9</ele>
      </trkpt>
      <trkpt lat="50.932064" lon="3.652985">
        <ele>8.55</ele>
      </trkpt>
      <trkpt lat="50.930614" lon="3.653176">
        <ele>8.74</ele>
      </trkpt>
      <trkpt lat="50.930124" lon="3.653289">
        <ele>8.72</ele>
      </trkpt>
      <trkpt lat="50.92953" lon="3.653507">
        <ele>8.99</ele>
      </trkpt>
      <trkpt lat="50.92908" lon="3.653723">
        <ele>8.93</ele>
      </trkpt>
      <trkpt lat="50.928633" lon="3.653981">
        <ele>9.11</ele>
      </trkpt>
      <trkpt lat="50.928391" lon="3.654146">
        <ele>8.69</ele>
      </trkpt>
      <trkpt lat="50.927877" lon="3.654531">
        <ele>8.93</ele>
      </trkpt>
      <trkpt lat="50.926936" lon="3.655436">
        <ele>8.63</ele>
      </trkpt>
      <trkpt lat="50.926355" lon="3.655959">
        <ele>8.94</ele>
      </trkpt>
      <trkpt lat="50.925845" lon="3.656374">
        <ele>8.56</ele>
      </trkpt>
      <trkpt lat="50.925581" lon="3.656558">
        <ele>8.6</ele>
      </trkpt>
      <trkpt lat="50.925402" lon="3.656666">
        <ele>8.96</ele>
      </trkpt>
      <trkpt lat="50.924803" lon="3.656941">
        <ele>8.54</ele>
      </trkpt>
      <trkpt lat="50.923662" lon="3.657377">
        <ele>8.69</ele>
      </trkpt>
      <trkpt lat="50.922883" lon="3.657697">
        <ele>8.98</ele>
      </trkpt>
      <trkpt lat="50.922498" lon="3.657889">
        <ele>9.25</ele>
      </trkpt>
      <trkpt lat="50.922117" lon="3.658122">
        <ele>8.52</ele>
      </trkpt>
      <trkpt lat="50.921696" lon="3.658424">
        <ele>8.74</ele>
      </trkpt>
      <trkpt lat="50.920996" lon="3.658997">
        <ele>8.43</ele>
      </trkpt>
      <trkpt lat="50.920717" lon="3.659266">
        <ele>9.66</ele>
      </trkpt>
      <trkpt lat="50.920526" lon="3.659471">
        <ele>8.8</ele>
      </trkpt>
      <trkpt lat="50.919852" lon="3.660269">
        <ele>8.91</ele>
      </trkpt>
      <trkpt lat="50.919569" lon="3.660645">
        <ele>8.85</ele>
      </trkpt>
      <trkpt lat="50.919334" lon="3.660978">
        <ele>8.59</ele>
      </trkpt>
      <trkpt lat="50.919053" lon="3.661405">
        <ele>8.59</ele>
      </trkpt>
      <trkpt lat="50.918534" lon="3.662305">
        <ele>9</ele>
      </trkpt>
      <trkpt lat="50.918105" lon="3.663199">
        <ele>9.02</ele>
      </trkpt>
      <trkpt lat="50.917681" lon="3.664134">
        <ele>8.99</ele>
      </trkpt>
      <trkpt lat="50.917409" lon="3.664786">
        <ele>8.75</ele>
      </trkpt>
      <trkpt lat="50.917312" lon="3.665235">
        <ele>8.78</ele>
      </trkpt>
      <trkpt lat="50.917115" lon="3.665688">
        <ele>9.55</ele>
      </trkpt>
      <trkpt lat="50.916978" lon="3.665962">
        <ele>10</ele>
      </trkpt>
      <trkpt lat="50.91673" lon="3.666521">
        <ele>9.91</ele>
      </trkpt>
      <trkpt lat="50.916697" lon="3.666717">
        <ele>9.55</ele>
      </trkpt>
      <trkpt lat="50.916463" lon="3.667225">
        <ele>9.66</ele>
      </trkpt>
      <trkpt lat="50.916308" lon="3.667521">
        <ele>9.59</ele>
      </trkpt>
      <trkpt lat="50.915768" lon="3.668345">
        <ele>10</ele>
      </trkpt>
      <trkpt lat="50.915686" lon="3.668488">
        <ele>10</ele>
      </trkpt>
      <trkpt lat="50.915171" lon="3.669569">
        <ele>10</ele>
      </trkpt>
      <trkpt lat="50.914837" lon="3.670312">
        <ele>10</ele>
      </trkpt>
      <trkpt lat="50.914507" lon="3.671181">
        <ele>9.55</ele>
      </trkpt>
      <trkpt lat="50.914384" lon="3.671559">
        <ele>9.47</ele>
      </trkpt>
      <trkpt lat="50.914163" lon="3.67234">
        <ele>9.37</ele>
      </trkpt>
      <trkpt lat="50.913985" lon="3.673139">
        <ele>10</ele>
      </trkpt>
      <trkpt lat="50.913402" lon="3.676092">
        <ele>9.42</ele>
      </trkpt>
      <trkpt lat="50.913228" lon="3.67688">
        <ele>9.45</ele>
      </trkpt>
      <trkpt lat="50.913024" lon="3.677691">
        <ele>9.62</ele>
      </trkpt>
      <trkpt lat="50.912783" lon="3.678534">
        <ele>9.78</ele>
      </trkpt>
      <trkpt lat="50.912579" lon="3.679145">
        <ele>9.97</ele>
      </trkpt>
      <trkpt lat="50.91245" lon="3.679487">
        <ele>9.37</ele>
      </trkpt>
      <trkpt lat="50.912282" lon="3.679895">
        <ele>9.65</ele>
      </trkpt>
      <trkpt lat="50.91207" lon="3.680344">
        <ele>9.56</ele>
      </trkpt>
      <trkpt lat="50.911858" lon="3.680749">
        <ele>9.61</ele>
      </trkpt>
      <trkpt lat="50.911593" lon="3.681214">
        <ele>9.98</ele>
      </trkpt>
      <trkpt lat="50.911298" lon="3.681669">
        <ele>9.92</ele>
      </trkpt>
      <trkpt lat="50.911077" lon="3.681976">
        <ele>9.66</ele>
      </trkpt>
      <trkpt lat="50.910649" lon="3.682505">
        <ele>9.7</ele>
      </trkpt>
      <trkpt lat="50.910088" lon="3.683116">
        <ele>9.78</ele>
      </trkpt>
      <trkpt lat="50.90945" lon="3.683731">
        <ele>9.94</ele>
      </trkpt>
      <trkpt lat="50.908989" lon="3.684131">
        <ele>9.97</ele>
      </trkpt>
      <trkpt lat="50.908627" lon="3.684415">
        <ele>9.8</ele>
      </trkpt>
      <trkpt lat="50.908004" lon="3.684837">
        <ele>9.97</ele>
      </trkpt>
      <trkpt lat="50.907441" lon="3.685167">
        <ele>9.9</ele>
      </trkpt>
      <trkpt lat="50.906922" lon="3.68542">
        <ele>9.83</ele>
      </trkpt>
      <trkpt lat="50.906387" lon="3.685642">
        <ele>9.96</ele>
      </trkpt>
      <trkpt lat="50.905982" lon="3.685781">
        <ele>9.94</ele>
      </trkpt>
      <trkpt lat="50.905482" lon="3.685916">
        <ele>9.92</ele>
      </trkpt>
      <trkpt lat="50.904891" lon="3.686034">
        <ele>9.76</ele>
      </trkpt>
      <trkpt lat="50.904501" lon="3.686083">
        <ele>9.95</ele>
      </trkpt>
      <trkpt lat="50.903866" lon="3.686109">
        <ele>10</ele>
      </trkpt>
      <trkpt lat="50.90344" lon="3.6861">
        <ele>10</ele>
      </trkpt>
      <trkpt lat="50.902885" lon="3.686057">
        <ele>9.9</ele>
      </trkpt>
      <trkpt lat="50.902613" lon="3.686018">
        <ele>9.67</ele>
      </trkpt>
      <trkpt lat="50.902313" lon="3.68596">
        <ele>10</ele>
      </trkpt>
      <trkpt lat="50.901937" lon="3.685869">
        <ele>9.83</ele>
      </trkpt>
      <trkpt lat="50.901412" lon="3.685715">
        <ele>9.91</ele>
      </trkpt>
      <trkpt lat="50.900903" lon="3.685523">
        <ele>9.79</ele>
      </trkpt>
      <trkpt lat="50.900518" lon="3.685347">
        <ele>9.81</ele>
      </trkpt>
      <trkpt lat="50.900143" lon="3.685157">
        <ele>9.88</ele>
      </trkpt>
      <trkpt lat="50.899817" lon="3.684971">
        <ele>9.85</ele>
      </trkpt>
      <trkpt lat="50.899303" lon="3.684638">
        <ele>9.78</ele>
      </trkpt>
      <trkpt lat="50.89872" lon="3.684217">
        <ele>9.85</ele>
      </trkpt>
      <trkpt lat="50.898122" lon="3.683731">
        <ele>9.9</ele>
      </trkpt>
      <trkpt lat="50.896065" lon="3.681987">
        <ele>9.94</ele>
      </trkpt>
      <trkpt lat="50.894301" lon="3.680461">
        <ele>9.82</ele>
      </trkpt>
      <trkpt lat="50.894015" lon="3.680157">
        <ele>10.27</ele>
      </trkpt>
      <trkpt lat="50.893776" lon="3.679862">
        <ele>10.71</ele>
      </trkpt>
      <trkpt lat="50.893703" lon="3.679744">
        <ele>10.8</ele>
      </trkpt>
      <trkpt lat="50.893588" lon="3.679615">
        <ele>9.97</ele>
      </trkpt>
      <trkpt lat="50.893341" lon="3.679282">
        <ele>10.15</ele>
      </trkpt>
      <trkpt lat="50.893276" lon="3.679166">
        <ele>10.06</ele>
      </trkpt>
      <trkpt lat="50.893175" lon="3.679041">
        <ele>9.9</ele>
      </trkpt>
      <trkpt lat="50.892904" lon="3.678626">
        <ele>9.74</ele>
      </trkpt>
      <trkpt lat="50.892652" lon="3.678194">
        <ele>9.87</ele>
      </trkpt>
      <trkpt lat="50.8924" lon="3.677707">
        <ele>9.98</ele>
      </trkpt>
      <trkpt lat="50.892143" lon="3.677149">
        <ele>9.57</ele>
      </trkpt>
      <trkpt lat="50.891942" lon="3.676639">
        <ele>10.39</ele>
      </trkpt>
      <trkpt lat="50.891824" lon="3.676311">
        <ele>10.18</ele>
      </trkpt>
      <trkpt lat="50.891585" lon="3.67558">
        <ele>9.48</ele>
      </trkpt>
      <trkpt lat="50.891505" lon="3.675312">
        <ele>9.73</ele>
      </trkpt>
      <trkpt lat="50.891355" lon="3.674746">
        <ele>9.91</ele>
      </trkpt>
      <trkpt lat="50.891251" lon="3.674279">
        <ele>9.74</ele>
      </trkpt>
      <trkpt lat="50.891025" lon="3.673128">
        <ele>9.92</ele>
      </trkpt>
      <trkpt lat="50.89091" lon="3.67253">
        <ele>9.81</ele>
      </trkpt>
      <trkpt lat="50.890669" lon="3.67099">
        <ele>10</ele>
      </trkpt>
      <trkpt lat="50.890509" lon="3.670156">
        <ele>9.8</ele>
      </trkpt>
      <trkpt lat="50.890393" lon="3.669638">
        <ele>9.99</ele>
      </trkpt>
      <trkpt lat="50.890265" lon="3.669159">
        <ele>10.2</ele>
      </trkpt>
      <trkpt lat="50.890146" lon="3.668773">
        <ele>9.76</ele>
      </trkpt>
      <trkpt lat="50.889886" lon="3.668031">
        <ele>10.52</ele>
      </trkpt>
      <trkpt lat="50.889725" lon="3.667631">
        <ele>9.64</ele>
      </trkpt>
      <trkpt lat="50.889547" lon="3.667234">
        <ele>10.22</ele>
      </trkpt>
      <trkpt lat="50.88875" lon="3.665549">
        <ele>9.67</ele>
      </trkpt>
      <trkpt lat="50.887906" lon="3.663702">
        <ele>10.12</ele>
      </trkpt>
      <trkpt lat="50.887725" lon="3.663236">
        <ele>10.58</ele>
      </trkpt>
      <trkpt lat="50.887543" lon="3.66271">
        <ele>9.91</ele>
      </trkpt>
      <trkpt lat="50.887387" lon="3.662194">
        <ele>10.39</ele>
      </trkpt>
      <trkpt lat="50.887197" lon="3.661459">
        <ele>10.11</ele>
      </trkpt>
      <trkpt lat="50.887003" lon="3.660458">
        <ele>9.97</ele>
      </trkpt>
      <trkpt lat="50.886943" lon="3.660033">
        <ele>10.37</ele>
      </trkpt>
      <trkpt lat="50.886913" lon="3.659744">
        <ele>9.46</ele>
      </trkpt>
      <trkpt lat="50.886832" lon="3.658872">
        <ele>10.33</ele>
      </trkpt>
      <trkpt lat="50.886813" lon="3.658501">
        <ele>9.83</ele>
      </trkpt>
      <trkpt lat="50.886801" lon="3.656306">
        <ele>9.38</ele>
      </trkpt>
      <trkpt lat="50.886833" lon="3.65392">
        <ele>10.34</ele>
      </trkpt>
      <trkpt lat="50.886823" lon="3.653094">
        <ele>10.17</ele>
      </trkpt>
      <trkpt lat="50.886798" lon="3.652704">
        <ele>10</ele>
      </trkpt>
      <trkpt lat="50.886708" lon="3.65171">
        <ele>10.04</ele>
      </trkpt>
      <trkpt lat="50.886595" lon="3.650753">
        <ele>9.97</ele>
      </trkpt>
      <trkpt lat="50.886025" lon="3.646733">
        <ele>10.23</ele>
      </trkpt>
      <trkpt lat="50.885882" lon="3.64585">
        <ele>10.68</ele>
      </trkpt>
      <trkpt lat="50.885768" lon="3.645239">
        <ele>10.72</ele>
      </trkpt>
      <trkpt lat="50.885567" lon="3.644341">
        <ele>10.64</ele>
      </trkpt>
      <trkpt lat="50.885462" lon="3.643924">
        <ele>10.1</ele>
      </trkpt>
      <trkpt lat="50.885232" lon="3.643117">
        <ele>10.59</ele>
      </trkpt>
      <trkpt lat="50.885066" lon="3.64261">
        <ele>10.21</ele>
      </trkpt>
      <trkpt lat="50.884715" lon="3.64165">
        <ele>10.35</ele>
      </trkpt>
      <trkpt lat="50.883773" lon="3.639438">
        <ele>10.48</ele>
      </trkpt>
      <trkpt lat="50.881554" lon="3.634248">
        <ele>10.33</ele>
      </trkpt>
      <trkpt lat="50.880983" lon="3.632978">
        <ele>10.69</ele>
      </trkpt>
      <trkpt lat="50.880569" lon="3.632251">
        <ele>10.76</ele>
      </trkpt>
      <trkpt lat="50.880261" lon="3.631765">
        <ele>10.49</ele>
      </trkpt>
      <trkpt lat="50.879941" lon="3.631321">
        <ele>10.39</ele>
      </trkpt>
      <trkpt lat="50.879514" lon="3.630799">
        <ele>10.43</ele>
      </trkpt>
      <trkpt lat="50.879295" lon="3.630558">
        <ele>10.6</ele>
      </trkpt>
      <trkpt lat="50.879034" lon="3.630292">
        <ele>10.47</ele>
      </trkpt>
      <trkpt lat="50.878772" lon="3.630045">
        <ele>10.6</ele>
      </trkpt>
      <trkpt lat="50.87833" lon="3.629688">
        <ele>10.72</ele>
      </trkpt>
      <trkpt lat="50.878076" lon="3.629508">
        <ele>10.74</ele>
      </trkpt>
      <trkpt lat="50.876731" lon="3.628613">
        <ele>10.57</ele>
      </trkpt>
      <trkpt lat="50.87544" lon="3.627768">
        <ele>10.68</ele>
      </trkpt>
      <trkpt lat="50.874994" lon="3.627521">
        <ele>10.19</ele>
      </trkpt>
      <trkpt lat="50.874517" lon="3.6273">
        <ele>10.49</ele>
      </trkpt>
      <trkpt lat="50.874146" lon="3.627169">
        <ele>10.36</ele>
      </trkpt>
      <trkpt lat="50.873763" lon="3.627062">
        <ele>10.21</ele>
      </trkpt>
      <trkpt lat="50.873365" lon="3.626988">
        <ele>10.33</ele>
      </trkpt>
      <trkpt lat="50.87301" lon="3.626946">
        <ele>10.55</ele>
      </trkpt>
      <trkpt lat="50.872459" lon="3.626926">
        <ele>10.79</ele>
      </trkpt>
      <trkpt lat="50.872153" lon="3.626953">
        <ele>10.47</ele>
      </trkpt>
      <trkpt lat="50.871861" lon="3.626997">
        <ele>10.11</ele>
      </trkpt>
      <trkpt lat="50.871489" lon="3.627072">
        <ele>10.72</ele>
      </trkpt>
      <trkpt lat="50.871342" lon="3.627031">
        <ele>10.96</ele>
      </trkpt>
      <trkpt lat="50.871342" lon="3.627031">
        <ele>10.96</ele>
      </trkpt>
      <trkpt lat="50.871342" lon="3.627031">
        <ele>10.96</ele>
      </trkpt>
      <trkpt lat="50.871489" lon="3.627072">
        <ele>10.72</ele>
      </trkpt>
      <trkpt lat="50.871861" lon="3.626997">
        <ele>10.11</ele>
      </trkpt>
      <trkpt lat="50.872153" lon="3.626953">
        <ele>10.47</ele>
      </trkpt>
      <trkpt lat="50.872459" lon="3.626926">
        <ele>10.79</ele>
      </trkpt>
      <trkpt lat="50.87301" lon="3.626946">
        <ele>10.55</ele>
      </trkpt>
      <trkpt lat="50.873365" lon="3.626988">
        <ele>10.33</ele>
      </trkpt>
      <trkpt lat="50.873763" lon="3.627062">
        <ele>10.21</ele>
      </trkpt>
      <trkpt lat="50.874146" lon="3.627169">
        <ele>10.36</ele>
      </trkpt>
      <trkpt lat="50.874517" lon="3.6273">
        <ele>10.49</ele>
      </trkpt>
      <trkpt lat="50.874994" lon="3.627521">
        <ele>10.19</ele>
      </trkpt>
      <trkpt lat="50.87544" lon="3.627768">
        <ele>10.68</ele>
      </trkpt>
      <trkpt lat="50.878076" lon="3.629508">
        <ele>10.74</ele>
      </trkpt>
      <trkpt lat="50.87833" lon="3.629688">
        <ele>10.72</ele>
      </trkpt>
      <trkpt lat="50.878772" lon="3.630045">
        <ele>10.6</ele>
      </trkpt>
      <trkpt lat="50.879034" lon="3.630292">
        <ele>10.47</ele>
      </trkpt>
      <trkpt lat="50.879295" lon="3.630558">
        <ele>10.6</ele>
      </trkpt>
      <trkpt lat="50.879514" lon="3.630799">
        <ele>10.43</ele>
      </trkpt>
      <trkpt lat="50.879941" lon="3.631321">
        <ele>10.39</ele>
      </trkpt>
      <trkpt lat="50.880261" lon="3.631765">
        <ele>10.49</ele>
      </trkpt>
      <trkpt lat="50.880569" lon="3.632251">
        <ele>10.76</ele>
      </trkpt>
      <trkpt lat="50.880983" lon="3.632978">
        <ele>10.69</ele>
      </trkpt>
      <trkpt lat="50.881554" lon="3.634248">
        <ele>10.33</ele>
      </trkpt>
      <trkpt lat="50.884715" lon="3.64165">
        <ele>10.35</ele>
      </trkpt>
      <trkpt lat="50.885066" lon="3.64261">
        <ele>10.21</ele>
      </trkpt>
      <trkpt lat="50.885232" lon="3.643117">
        <ele>10.59</ele>
      </trkpt>
      <trkpt lat="50.885462" lon="3.643924">
        <ele>10.1</ele>
      </trkpt>
      <trkpt lat="50.885567" lon="3.644341">
        <ele>10.64</ele>
      </trkpt>
      <trkpt lat="50.885768" lon="3.645239">
        <ele>10.72</ele>
      </trkpt>
      <trkpt lat="50.885882" lon="3.64585">
        <ele>10.68</ele>
      </trkpt>
      <trkpt lat="50.886025" lon="3.646733">
        <ele>10.23</ele>
      </trkpt>
      <trkpt lat="50.886595" lon="3.650753">
        <ele>9.97</ele>
      </trkpt>
      <trkpt lat="50.886708" lon="3.65171">
        <ele>10.04</ele>
      </trkpt>
      <trkpt lat="50.886798" lon="3.652704">
        <ele>10</ele>
      </trkpt>
      <trkpt lat="50.886823" lon="3.653094">
        <ele>10.17</ele>
      </trkpt>
      <trkpt lat="50.886833" lon="3.65392">
        <ele>10.34</ele>
      </trkpt>
      <trkpt lat="50.886801" lon="3.656306">
        <ele>9.38</ele>
      </trkpt>
      <trkpt lat="50.886813" lon="3.658501">
        <ele>9.83</ele>
      </trkpt>
      <trkpt lat="50.886832" lon="3.658872">
        <ele>10.33</ele>
      </trkpt>
      <trkpt lat="50.886913" lon="3.659744">
        <ele>9.46</ele>
      </trkpt>
      <trkpt lat="50.886943" lon="3.660033">
        <ele>10.37</ele>
      </trkpt>
      <trkpt lat="50.887003" lon="3.660458">
        <ele>9.97</ele>
      </trkpt>
      <trkpt lat="50.887197" lon="3.661459">
        <ele>10.11</ele>
      </trkpt>
      <trkpt lat="50.887387" lon="3.662194">
        <ele>10.39</ele>
      </trkpt>
      <trkpt lat="50.887543" lon="3.66271">
        <ele>9.91</ele>
      </trkpt>
      <trkpt lat="50.887725" lon="3.663236">
        <ele>10.58</ele>
      </trkpt>
      <trkpt lat="50.887906" lon="3.663702">
        <ele>10.12</ele>
      </trkpt>
      <trkpt lat="50.88875" lon="3.665549">
        <ele>9.67</ele>
      </trkpt>
      <trkpt lat="50.889547" lon="3.667234">
        <ele>10.22</ele>
      </trkpt>
      <trkpt lat="50.889725" lon="3.667631">
        <ele>9.64</ele>
      </trkpt>
      <trkpt lat="50.889886" lon="3.668031">
        <ele>10.52</ele>
      </trkpt>
      <trkpt lat="50.890146" lon="3.668773">
        <ele>9.76</ele>
      </trkpt>
      <trkpt lat="50.890265" lon="3.669159">
        <ele>10.2</ele>
      </trkpt>
      <trkpt lat="50.890393" lon="3.669638">
        <ele>9.99</ele>
      </trkpt>
      <trkpt lat="50.890509" lon="3.670156">
        <ele>9.8</ele>
      </trkpt>
      <trkpt lat="50.890669" lon="3.67099">
        <ele>10</ele>
      </trkpt>
      <trkpt lat="50.89091" lon="3.67253">
        <ele>9.81</ele>
      </trkpt>
      <trkpt lat="50.891251" lon="3.674279">
        <ele>9.74</ele>
      </trkpt>
      <trkpt lat="50.891355" lon="3.674746">
        <ele>9.91</ele>
      </trkpt>
      <trkpt lat="50.891505" lon="3.675312">
        <ele>9.73</ele>
      </trkpt>
      <trkpt lat="50.891585" lon="3.67558">
        <ele>9.48</ele>
      </trkpt>
      <trkpt lat="50.891824" lon="3.676311">
        <ele>10.18</ele>
      </trkpt>
      <trkpt lat="50.891942" lon="3.676639">
        <ele>10.39</ele>
      </trkpt>
      <trkpt lat="50.892143" lon="3.677149">
        <ele>9.57</ele>
      </trkpt>
      <trkpt lat="50.892351" lon="3.6776">
        <ele>9.9</ele>
      </trkpt>
      <trkpt lat="50.892652" lon="3.678194">
        <ele>9.87</ele>
      </trkpt>
      <trkpt lat="50.892904" lon="3.678626">
        <ele>9.74</ele>
      </trkpt>
      <trkpt lat="50.893175" lon="3.679041">
        <ele>9.9</ele>
      </trkpt>
      <trkpt lat="50.893276" lon="3.679166">
        <ele>10.06</ele>
      </trkpt>
      <trkpt lat="50.893341" lon="3.679282">
        <ele>10.15</ele>
      </trkpt>
      <trkpt lat="50.893588" lon="3.679615">
        <ele>9.97</ele>
      </trkpt>
      <trkpt lat="50.893703" lon="3.679744">
        <ele>10.8</ele>
      </trkpt>
      <trkpt lat="50.893776" lon="3.679862">
        <ele>10.71</ele>
      </trkpt>
      <trkpt lat="50.894015" lon="3.680157">
        <ele>10.27</ele>
      </trkpt>
      <trkpt lat="50.894301" lon="3.680461">
        <ele>9.82</ele>
      </trkpt>
      <trkpt lat="50.896065" lon="3.681987">
        <ele>9.94</ele>
      </trkpt>
      <trkpt lat="50.898122" lon="3.683731">
        <ele>9.9</ele>
      </trkpt>
      <trkpt lat="50.89872" lon="3.684217">
        <ele>9.85</ele>
      </trkpt>
      <trkpt lat="50.898931" lon="3.684374">
        <ele>9.91</ele>
      </trkpt>
      <trkpt lat="50.899303" lon="3.684638">
        <ele>9.78</ele>
      </trkpt>
      <trkpt lat="50.899817" lon="3.684971">
        <ele>9.85</ele>
      </trkpt>
      <trkpt lat="50.900143" lon="3.685157">
        <ele>9.88</ele>
      </trkpt>
      <trkpt lat="50.900518" lon="3.685347">
        <ele>9.81</ele>
      </trkpt>
      <trkpt lat="50.900903" lon="3.685523">
        <ele>9.79</ele>
      </trkpt>
      <trkpt lat="50.901412" lon="3.685715">
        <ele>9.91</ele>
      </trkpt>
      <trkpt lat="50.901937" lon="3.685869">
        <ele>9.83</ele>
      </trkpt>
      <trkpt lat="50.902313" lon="3.68596">
        <ele>10</ele>
      </trkpt>
      <trkpt lat="50.902613" lon="3.686018">
        <ele>9.67</ele>
      </trkpt>
      <trkpt lat="50.902885" lon="3.686057">
        <ele>9.9</ele>
      </trkpt>
      <trkpt lat="50.90344" lon="3.6861">
        <ele>10</ele>
      </trkpt>
      <trkpt lat="50.903866" lon="3.686109">
        <ele>10</ele>
      </trkpt>
      <trkpt lat="50.904501" lon="3.686083">
        <ele>9.95</ele>
      </trkpt>
      <trkpt lat="50.904891" lon="3.686034">
        <ele>9.76</ele>
      </trkpt>
      <trkpt lat="50.905482" lon="3.685916">
        <ele>9.92</ele>
      </trkpt>
      <trkpt lat="50.905982" lon="3.685781">
        <ele>9.94</ele>
      </trkpt>
      <trkpt lat="50.906387" lon="3.685642">
        <ele>9.96</ele>
      </trkpt>
      <trkpt lat="50.906922" lon="3.68542">
        <ele>9.83</ele>
      </trkpt>
      <trkpt lat="50.907441" lon="3.685167">
        <ele>9.9</ele>
      </trkpt>
      <trkpt lat="50.908004" lon="3.684837">
        <ele>9.97</ele>
      </trkpt>
      <trkpt lat="50.908627" lon="3.684415">
        <ele>9.8</ele>
      </trkpt>
      <trkpt lat="50.908989" lon="3.684131">
        <ele>9.97</ele>
      </trkpt>
      <trkpt lat="50.90945" lon="3.683731">
        <ele>9.94</ele>
      </trkpt>
      <trkpt lat="50.910088" lon="3.683116">
        <ele>9.78</ele>
      </trkpt>
      <trkpt lat="50.910649" lon="3.682505">
        <ele>9.7</ele>
      </trkpt>
      <trkpt lat="50.911077" lon="3.681976">
        <ele>9.66</ele>
      </trkpt>
      <trkpt lat="50.911298" lon="3.681669">
        <ele>9.92</ele>
      </trkpt>
      <trkpt lat="50.911593" lon="3.681214">
        <ele>9.98</ele>
      </trkpt>
      <trkpt lat="50.911858" lon="3.680749">
        <ele>9.61</ele>
      </trkpt>
      <trkpt lat="50.91207" lon="3.680344">
        <ele>9.56</ele>
      </trkpt>
      <trkpt lat="50.912282" lon="3.679895">
        <ele>9.65</ele>
      </trkpt>
      <trkpt lat="50.91245" lon="3.679487">
        <ele>9.37</ele>
      </trkpt>
      <trkpt lat="50.912579" lon="3.679145">
        <ele>9.97</ele>
      </trkpt>
      <trkpt lat="50.912783" lon="3.678534">
        <ele>9.78</ele>
      </trkpt>
      <trkpt lat="50.913024" lon="3.677691">
        <ele>9.62</ele>
      </trkpt>
      <trkpt lat="50.913228" lon="3.67688">
        <ele>9.45</ele>
      </trkpt>
      <trkpt lat="50.913402" lon="3.676092">
        <ele>9.42</ele>
      </trkpt>
      <trkpt lat="50.913985" lon="3.673139">
        <ele>10</ele>
      </trkpt>
      <trkpt lat="50.914163" lon="3.67234">
        <ele>9.37</ele>
      </trkpt>
      <trkpt lat="50.914384" lon="3.671559">
        <ele>9.47</ele>
      </trkpt>
      <trkpt lat="50.914507" lon="3.671181">
        <ele>9.55</ele>
      </trkpt>
      <trkpt lat="50.914837" lon="3.670312">
        <ele>10</ele>
      </trkpt>
      <trkpt lat="50.915171" lon="3.669569">
        <ele>10</ele>
      </trkpt>
      <trkpt lat="50.915686" lon="3.668488">
        <ele>10</ele>
      </trkpt>
      <trkpt lat="50.915768" lon="3.668345">
        <ele>10</ele>
      </trkpt>
      <trkpt lat="50.916308" lon="3.667521">
        <ele>9.59</ele>
      </trkpt>
      <trkpt lat="50.916463" lon="3.667225">
        <ele>9.66</ele>
      </trkpt>
      <trkpt lat="50.916697" lon="3.666717">
        <ele>9.55</ele>
      </trkpt>
      <trkpt lat="50.91673" lon="3.666521">
        <ele>9.91</ele>
      </trkpt>
      <trkpt lat="50.916978" lon="3.665962">
        <ele>10</ele>
      </trkpt>
      <trkpt lat="50.917115" lon="3.665688">
        <ele>9.55</ele>
      </trkpt>
      <trkpt lat="50.917312" lon="3.665235">
        <ele>8.78</ele>
      </trkpt>
      <trkpt lat="50.917409" lon="3.664786">
        <ele>8.75</ele>
      </trkpt>
      <trkpt lat="50.917681" lon="3.664134">
        <ele>8.99</ele>
      </trkpt>
      <trkpt lat="50.918105" lon="3.663199">
        <ele>9.02</ele>
      </trkpt>
      <trkpt lat="50.918534" lon="3.662305">
        <ele>9</ele>
      </trkpt>
      <trkpt lat="50.919053" lon="3.661405">
        <ele>8.59</ele>
      </trkpt>
      <trkpt lat="50.919334" lon="3.660978">
        <ele>8.59</ele>
      </trkpt>
      <trkpt lat="50.919569" lon="3.660645">
        <ele>8.85</ele>
      </trkpt>
      <trkpt lat="50.919852" lon="3.660269">
        <ele>8.91</ele>
      </trkpt>
      <trkpt lat="50.920526" lon="3.659471">
        <ele>8.8</ele>
      </trkpt>
      <trkpt lat="50.920717" lon="3.659266">
        <ele>9.66</ele>
      </trkpt>
      <trkpt lat="50.920996" lon="3.658997">
        <ele>8.43</ele>
      </trkpt>
      <trkpt lat="50.921696" lon="3.658424">
        <ele>8.74</ele>
      </trkpt>
      <trkpt lat="50.922117" lon="3.658122">
        <ele>8.52</ele>
      </trkpt>
      <trkpt lat="50.922498" lon="3.657889">
        <ele>9.25</ele>
      </trkpt>
      <trkpt lat="50.922883" lon="3.657697">
        <ele>8.98</ele>
      </trkpt>
      <trkpt lat="50.923662" lon="3.657377">
        <ele>8.69</ele>
      </trkpt>
      <trkpt lat="50.924803" lon="3.656941">
        <ele>8.54</ele>
      </trkpt>
      <trkpt lat="50.925402" lon="3.656666">
        <ele>8.96</ele>
      </trkpt>
      <trkpt lat="50.925581" lon="3.656558">
        <ele>8.6</ele>
      </trkpt>
      <trkpt lat="50.925845" lon="3.656374">
        <ele>8.56</ele>
      </trkpt>
      <trkpt lat="50.926355" lon="3.655959">
        <ele>8.94</ele>
      </trkpt>
      <trkpt lat="50.926936" lon="3.655436">
        <ele>8.63</ele>
      </trkpt>
      <trkpt lat="50.927877" lon="3.654531">
        <ele>8.93</ele>
      </trkpt>
      <trkpt lat="50.928391" lon="3.654146">
        <ele>8.69</ele>
      </trkpt>
      <trkpt lat="50.928633" lon="3.653981">
        <ele>9.11</ele>
      </trkpt>
      <trkpt lat="50.92908" lon="3.653723">
        <ele>8.93</ele>
      </trkpt>
      <trkpt lat="50.92953" lon="3.653507">
        <ele>8.99</ele>
      </trkpt>
      <trkpt lat="50.930124" lon="3.653289">
        <ele>8.72</ele>
      </trkpt>
      <trkpt lat="50.930614" lon="3.653176">
        <ele>8.74</ele>
      </trkpt>
      <trkpt lat="50.932064" lon="3.652985">
        <ele>8.55</ele>
      </trkpt>
      <trkpt lat="50.932686" lon="3.652886">
        <ele>8.9</ele>
      </trkpt>
      <trkpt lat="50.932855" lon="3.652825">
        <ele>8.31</ele>
      </trkpt>
      <trkpt lat="50.932966" lon="3.65275">
        <ele>8.74</ele>
      </trkpt>
      <trkpt lat="50.933263" lon="3.652461">
        <ele>8.55</ele>
      </trkpt>
      <trkpt lat="50.934087" lon="3.652038">
        <ele>8.54</ele>
      </trkpt>
      <trkpt lat="50.934368" lon="3.65186">
        <ele>8.92</ele>
      </trkpt>
      <trkpt lat="50.934621" lon="3.651685">
        <ele>8.64</ele>
      </trkpt>
      <trkpt lat="50.935264" lon="3.651175">
        <ele>8.68</ele>
      </trkpt>
      <trkpt lat="50.935493" lon="3.651005">
        <ele>8.9</ele>
      </trkpt>
      <trkpt lat="50.935881" lon="3.650905">
        <ele>9</ele>
      </trkpt>
      <trkpt lat="50.935973" lon="3.65087">
        <ele>8.74</ele>
      </trkpt>
      <trkpt lat="50.936791" lon="3.650252">
        <ele>8.48</ele>
      </trkpt>
      <trkpt lat="50.937311" lon="3.649934">
        <ele>8.76</ele>
      </trkpt>
      <trkpt lat="50.937922" lon="3.649635">
        <ele>8.75</ele>
      </trkpt>
      <trkpt lat="50.938193" lon="3.649541">
        <ele>8.41</ele>
      </trkpt>
      <trkpt lat="50.93847" lon="3.649459">
        <ele>8.77</ele>
      </trkpt>
      <trkpt lat="50.938777" lon="3.649385">
        <ele>8.23</ele>
      </trkpt>
      <trkpt lat="50.939074" lon="3.649334">
        <ele>8.24</ele>
      </trkpt>
      <trkpt lat="50.93939" lon="3.6493">
        <ele>8.62</ele>
      </trkpt>
      <trkpt lat="50.940014" lon="3.649266">
        <ele>9</ele>
      </trkpt>
      <trkpt lat="50.941085" lon="3.649269">
        <ele>8.97</ele>
      </trkpt>
      <trkpt lat="50.941635" lon="3.649126">
        <ele>8.63</ele>
      </trkpt>
      <trkpt lat="50.942497" lon="3.648994">
        <ele>8.59</ele>
      </trkpt>
      <trkpt lat="50.943093" lon="3.648846">
        <ele>8.45</ele>
      </trkpt>
      <trkpt lat="50.943413" lon="3.648749">
        <ele>8.99</ele>
      </trkpt>
      <trkpt lat="50.943766" lon="3.648626">
        <ele>8.31</ele>
      </trkpt>
      <trkpt lat="50.94695" lon="3.647336">
        <ele>8.72</ele>
      </trkpt>
      <trkpt lat="50.947185" lon="3.647258">
        <ele>8.09</ele>
      </trkpt>
      <trkpt lat="50.947767" lon="3.647091">
        <ele>7.79</ele>
      </trkpt>
      <trkpt lat="50.947929" lon="3.647058">
        <ele>8.69</ele>
      </trkpt>
      <trkpt lat="50.94849" lon="3.646982">
        <ele>8</ele>
      </trkpt>
      <trkpt lat="50.949151" lon="3.646971">
        <ele>8.21</ele>
      </trkpt>
      <trkpt lat="50.949544" lon="3.647016">
        <ele>8.91</ele>
      </trkpt>
      <trkpt lat="50.949832" lon="3.647068">
        <ele>8.57</ele>
      </trkpt>
      <trkpt lat="50.950301" lon="3.64719">
        <ele>9</ele>
      </trkpt>
      <trkpt lat="50.950877" lon="3.647409">
        <ele>8.48</ele>
      </trkpt>
      <trkpt lat="50.951068" lon="3.647497">
        <ele>8.34</ele>
      </trkpt>
      <trkpt lat="50.951829" lon="3.647949">
        <ele>8.29</ele>
      </trkpt>
      <trkpt lat="50.952101" lon="3.64815">
        <ele>7.3</ele>
      </trkpt>
      <trkpt lat="50.952369" lon="3.648363">
        <ele>7.38</ele>
      </trkpt>
      <trkpt lat="50.952777" lon="3.648736">
        <ele>7.88</ele>
      </trkpt>
      <trkpt lat="50.952946" lon="3.648902">
        <ele>7.92</ele>
      </trkpt>
      <trkpt lat="50.95329" lon="3.649282">
        <ele>8.05</ele>
      </trkpt>
      <trkpt lat="50.953703" lon="3.649794">
        <ele>8.27</ele>
      </trkpt>
      <trkpt lat="50.954113" lon="3.650392">
        <ele>8.04</ele>
      </trkpt>
      <trkpt lat="50.954361" lon="3.650793">
        <ele>8.03</ele>
      </trkpt>
      <trkpt lat="50.954593" lon="3.651207">
        <ele>7.96</ele>
      </trkpt>
      <trkpt lat="50.954784" lon="3.651567">
        <ele>7.91</ele>
      </trkpt>
      <trkpt lat="50.954942" lon="3.651928">
        <ele>8.2</ele>
      </trkpt>
      <trkpt lat="50.955232" lon="3.652699">
        <ele>8.52</ele>
      </trkpt>
      <trkpt lat="50.955331" lon="3.653021">
        <ele>7.52</ele>
      </trkpt>
      <trkpt lat="50.955438" lon="3.653326">
        <ele>8.06</ele>
      </trkpt>
      <trkpt lat="50.955684" lon="3.654186">
        <ele>8.64</ele>
      </trkpt>
      <trkpt lat="50.955816" lon="3.654692">
        <ele>8.31</ele>
      </trkpt>
      <trkpt lat="50.955956" lon="3.655188">
        <ele>8.5</ele>
      </trkpt>
      <trkpt lat="50.956051" lon="3.655394">
        <ele>8.84</ele>
      </trkpt>
      <trkpt lat="50.956248" lon="3.655713">
        <ele>8.36</ele>
      </trkpt>
      <trkpt lat="50.956371" lon="3.656201">
        <ele>7.72</ele>
      </trkpt>
      <trkpt lat="50.956436" lon="3.65651">
        <ele>7.8</ele>
      </trkpt>
      <trkpt lat="50.956529" lon="3.656991">
        <ele>7.51</ele>
      </trkpt>
      <trkpt lat="50.956636" lon="3.657682">
        <ele>7.46</ele>
      </trkpt>
      <trkpt lat="50.956639" lon="3.657807">
        <ele>7.51</ele>
      </trkpt>
      <trkpt lat="50.956614" lon="3.658167">
        <ele>7.36</ele>
      </trkpt>
      <trkpt lat="50.956672" lon="3.658893">
        <ele>7.63</ele>
      </trkpt>
      <trkpt lat="50.956715" lon="3.659884">
        <ele>7.41</ele>
      </trkpt>
      <trkpt lat="50.956718" lon="3.660828">
        <ele>7.45</ele>
      </trkpt>
      <trkpt lat="50.956692" lon="3.661571">
        <ele>7.97</ele>
      </trkpt>
      <trkpt lat="50.95658" lon="3.662555">
        <ele>7.91</ele>
      </trkpt>
      <trkpt lat="50.95653" lon="3.662905">
        <ele>6.98</ele>
      </trkpt>
      <trkpt lat="50.956386" lon="3.663741">
        <ele>7.29</ele>
      </trkpt>
      <trkpt lat="50.956215" lon="3.664521">
        <ele>7.17</ele>
      </trkpt>
      <trkpt lat="50.956039" lon="3.665192">
        <ele>7.53</ele>
      </trkpt>
      <trkpt lat="50.955832" lon="3.665841">
        <ele>6.77</ele>
      </trkpt>
      <trkpt lat="50.955655" lon="3.666331">
        <ele>7.08</ele>
      </trkpt>
      <trkpt lat="50.954998" lon="3.668038">
        <ele>6.83</ele>
      </trkpt>
      <trkpt lat="50.954791" lon="3.66863">
        <ele>7.21</ele>
      </trkpt>
      <trkpt lat="50.954595" lon="3.669304">
        <ele>7.26</ele>
      </trkpt>
      <trkpt lat="50.954442" lon="3.669945">
        <ele>7.4</ele>
      </trkpt>
      <trkpt lat="50.954342" lon="3.670431">
        <ele>6.61</ele>
      </trkpt>
      <trkpt lat="50.954185" lon="3.671428">
        <ele>7.56</ele>
      </trkpt>
      <trkpt lat="50.954131" lon="3.671956">
        <ele>6.7</ele>
      </trkpt>
      <trkpt lat="50.954104" lon="3.672299">
        <ele>7.1</ele>
      </trkpt>
      <trkpt lat="50.954072" lon="3.673226">
        <ele>7.61</ele>
      </trkpt>
      <trkpt lat="50.954077" lon="3.673845">
        <ele>7.71</ele>
      </trkpt>
      <trkpt lat="50.954088" lon="3.674179">
        <ele>7.91</ele>
      </trkpt>
      <trkpt lat="50.954127" lon="3.674833">
        <ele>7.31</ele>
      </trkpt>
      <trkpt lat="50.954175" lon="3.675363">
        <ele>7.51</ele>
      </trkpt>
      <trkpt lat="50.954247" lon="3.675883">
        <ele>6.99</ele>
      </trkpt>
      <trkpt lat="50.954427" lon="3.676934">
        <ele>7.13</ele>
      </trkpt>
      <trkpt lat="50.954613" lon="3.67782">
        <ele>7.6</ele>
      </trkpt>
      <trkpt lat="50.954809" lon="3.678642">
        <ele>7.31</ele>
      </trkpt>
      <trkpt lat="50.955099" lon="3.679753">
        <ele>6.89</ele>
      </trkpt>
      <trkpt lat="50.955564" lon="3.68124">
        <ele>7.24</ele>
      </trkpt>
      <trkpt lat="50.955779" lon="3.681823">
        <ele>7.43</ele>
      </trkpt>
      <trkpt lat="50.955909" lon="3.682146">
        <ele>7.39</ele>
      </trkpt>
      <trkpt lat="50.95627" lon="3.682905">
        <ele>7.48</ele>
      </trkpt>
      <trkpt lat="50.956464" lon="3.683261">
        <ele>7.85</ele>
      </trkpt>
      <trkpt lat="50.956656" lon="3.683594">
        <ele>7.32</ele>
      </trkpt>
      <trkpt lat="50.956803" lon="3.683833">
        <ele>7.96</ele>
      </trkpt>
      <trkpt lat="50.956953" lon="3.684057">
        <ele>7.38</ele>
      </trkpt>
      <trkpt lat="50.957359" lon="3.684587">
        <ele>7.6</ele>
      </trkpt>
      <trkpt lat="50.957948" lon="3.685231">
        <ele>7.87</ele>
      </trkpt>
      <trkpt lat="50.958202" lon="3.685467">
        <ele>7.44</ele>
      </trkpt>
      <trkpt lat="50.958448" lon="3.685673">
        <ele>7.54</ele>
      </trkpt>
      <trkpt lat="50.958753" lon="3.685907">
        <ele>7.03</ele>
      </trkpt>
      <trkpt lat="50.959136" lon="3.686163">
        <ele>7.52</ele>
      </trkpt>
      <trkpt lat="50.959466" lon="3.686344">
        <ele>7.57</ele>
      </trkpt>
      <trkpt lat="50.960229" lon="3.686708">
        <ele>7.68</ele>
      </trkpt>
      <trkpt lat="50.961552" lon="3.687203">
        <ele>7.56</ele>
      </trkpt>
      <trkpt lat="50.961983" lon="3.687378">
        <ele>7.16</ele>
      </trkpt>
      <trkpt lat="50.962407" lon="3.687572">
        <ele>7.49</ele>
      </trkpt>
      <trkpt lat="50.962813" lon="3.687797">
        <ele>7.51</ele>
      </trkpt>
      <trkpt lat="50.963272" lon="3.688111">
        <ele>8</ele>
      </trkpt>
      <trkpt lat="50.963667" lon="3.688424">
        <ele>8</ele>
      </trkpt>
      <trkpt lat="50.964208" lon="3.688936">
        <ele>8</ele>
      </trkpt>
      <trkpt lat="50.964636" lon="3.689419">
        <ele>8</ele>
      </trkpt>
      <trkpt lat="50.96481" lon="3.689641">
        <ele>8</ele>
      </trkpt>
      <trkpt lat="50.965093" lon="3.690032">
        <ele>7.46</ele>
      </trkpt>
      <trkpt lat="50.965492" lon="3.690637">
        <ele>8.1</ele>
      </trkpt>
      <trkpt lat="50.965669" lon="3.69094">
        <ele>8.31</ele>
      </trkpt>
      <trkpt lat="50.965986" lon="3.691534">
        <ele>7.67</ele>
      </trkpt>
      <trkpt lat="50.966294" lon="3.692211">
        <ele>7.95</ele>
      </trkpt>
      <trkpt lat="50.96659" lon="3.692938">
        <ele>8.06</ele>
      </trkpt>
      <trkpt lat="50.967191" lon="3.694613">
        <ele>7.52</ele>
      </trkpt>
      <trkpt lat="50.967448" lon="3.695304">
        <ele>7.43</ele>
      </trkpt>
      <trkpt lat="50.9678" lon="3.696195">
        <ele>7.08</ele>
      </trkpt>
      <trkpt lat="50.967996" lon="3.69662">
        <ele>7.56</ele>
      </trkpt>
      <trkpt lat="50.968238" lon="3.697094">
        <ele>7.01</ele>
      </trkpt>
      <trkpt lat="50.968506" lon="3.697569">
        <ele>7.79</ele>
      </trkpt>
      <trkpt lat="50.968792" lon="3.697994">
        <ele>7.12</ele>
      </trkpt>
      <trkpt lat="50.968995" lon="3.69827">
        <ele>7.55</ele>
      </trkpt>
      <trkpt lat="50.969356" lon="3.69873">
        <ele>6.98</ele>
      </trkpt>
      <trkpt lat="50.969601" lon="3.699013">
        <ele>7.46</ele>
      </trkpt>
      <trkpt lat="50.969872" lon="3.699272">
        <ele>7.33</ele>
      </trkpt>
      <trkpt lat="50.970214" lon="3.699565">
        <ele>7.48</ele>
      </trkpt>
      <trkpt lat="50.970854" lon="3.700048">
        <ele>7.3</ele>
      </trkpt>
      <trkpt lat="50.971391" lon="3.700415">
        <ele>7.5</ele>
      </trkpt>
      <trkpt lat="50.971675" lon="3.700592">
        <ele>7.14</ele>
      </trkpt>
      <trkpt lat="50.972368" lon="3.700994">
        <ele>6.85</ele>
      </trkpt>
      <trkpt lat="50.972891" lon="3.701337">
        <ele>7.52</ele>
      </trkpt>
      <trkpt lat="50.973328" lon="3.701682">
        <ele>7.53</ele>
      </trkpt>
      <trkpt lat="50.973771" lon="3.702082">
        <ele>7.54</ele>
      </trkpt>
      <trkpt lat="50.974044" lon="3.702365">
        <ele>7.13</ele>
      </trkpt>
      <trkpt lat="50.974436" lon="3.70282">
        <ele>7.43</ele>
      </trkpt>
      <trkpt lat="50.974693" lon="3.703157">
        <ele>7.62</ele>
      </trkpt>
      <trkpt lat="50.975245" lon="3.703947">
        <ele>7</ele>
      </trkpt>
      <trkpt lat="50.97861" lon="3.708918">
        <ele>7.46</ele>
      </trkpt>
      <trkpt lat="50.98005" lon="3.710994">
        <ele>7.28</ele>
      </trkpt>
      <trkpt lat="50.980831" lon="3.71202">
        <ele>7.61</ele>
      </trkpt>
      <trkpt lat="50.981896" lon="3.713346">
        <ele>6.96</ele>
      </trkpt>
      <trkpt lat="50.982773" lon="3.714354">
        <ele>7.49</ele>
      </trkpt>
      <trkpt lat="50.983467" lon="3.715119">
        <ele>7.28</ele>
      </trkpt>
      <trkpt lat="50.984357" lon="3.716031">
        <ele>7.73</ele>
      </trkpt>
      <trkpt lat="50.985436" lon="3.71707">
        <ele>7.66</ele>
      </trkpt>
      <trkpt lat="50.985871" lon="3.717471">
        <ele>6.95</ele>
      </trkpt>
      <trkpt lat="50.989759" lon="3.720953">
        <ele>7.24</ele>
      </trkpt>
      <trkpt lat="50.990408" lon="3.721592">
        <ele>6.65</ele>
      </trkpt>
      <trkpt lat="50.990684" lon="3.721806">
        <ele>6.89</ele>
      </trkpt>
      <trkpt lat="50.990982" lon="3.722021">
        <ele>7.59</ele>
      </trkpt>
      <trkpt lat="50.991356" lon="3.72227">
        <ele>6.58</ele>
      </trkpt>
      <trkpt lat="50.991666" lon="3.722445">
        <ele>6.54</ele>
      </trkpt>
      <trkpt lat="50.99196" lon="3.722591">
        <ele>6.69</ele>
      </trkpt>
      <trkpt lat="50.992259" lon="3.722716">
        <ele>6.96</ele>
      </trkpt>
      <trkpt lat="50.992509" lon="3.722801">
        <ele>6.85</ele>
      </trkpt>
      <trkpt lat="50.993008" lon="3.722896">
        <ele>6.91</ele>
      </trkpt>
      <trkpt lat="50.993358" lon="3.722934">
        <ele>6.7</ele>
      </trkpt>
      <trkpt lat="50.993652" lon="3.722944">
        <ele>6.64</ele>
      </trkpt>
      <trkpt lat="50.993899" lon="3.722932">
        <ele>6.71</ele>
      </trkpt>
      <trkpt lat="50.994186" lon="3.7229">
        <ele>6.9</ele>
      </trkpt>
      <trkpt lat="50.994384" lon="3.722861">
        <ele>7</ele>
      </trkpt>
      <trkpt lat="50.996032" lon="3.722427">
        <ele>6.65</ele>
      </trkpt>
      <trkpt lat="50.996587" lon="3.722287">
        <ele>6.8</ele>
      </trkpt>
      <trkpt lat="50.997145" lon="3.722163">
        <ele>7</ele>
      </trkpt>
      <trkpt lat="50.997736" lon="3.722082">
        <ele>6.65</ele>
      </trkpt>
      <trkpt lat="50.998311" lon="3.72206">
        <ele>6.78</ele>
      </trkpt>
      <trkpt lat="50.998571" lon="3.722074">
        <ele>7.19</ele>
      </trkpt>
      <trkpt lat="50.998968" lon="3.722136">
        <ele>7.21</ele>
      </trkpt>
      <trkpt lat="50.99928" lon="3.722205">
        <ele>6.94</ele>
      </trkpt>
      <trkpt lat="50.999564" lon="3.722289">
        <ele>6.9</ele>
      </trkpt>
      <trkpt lat="50.999774" lon="3.722367">
        <ele>6.99</ele>
      </trkpt>
      <trkpt lat="51.000124" lon="3.72253">
        <ele>7.05</ele>
      </trkpt>
      <trkpt lat="51.00041" lon="3.722682">
        <ele>6.79</ele>
      </trkpt>
      <trkpt lat="51.000762" lon="3.722908">
        <ele>6.85</ele>
      </trkpt>
      <trkpt lat="51.001069" lon="3.723139">
        <ele>7.28</ele>
      </trkpt>
      <trkpt lat="51.001378" lon="3.723396">
        <ele>7.01</ele>
      </trkpt>
      <trkpt lat="51.001684" lon="3.723677">
        <ele>7.21</ele>
      </trkpt>
    </trkseg>
  </trk>
</gpx>
