<?xml version="1.0" encoding="UTF-8"?>
<gpx creator="https://gpx.studio" version="1.1" schemaLocation="http://www.topografix.com/GPX/1/1 http://www.topografix.com/GPX/1/1/gpx.xsd http://www.garmin.com/xmlschemas/GpxExtensions/v3 http://www.garmin.com/xmlschemas/GpxExtensionsv3.xsd http://www.garmin.com/xmlschemas/TrackPointExtension/v1 http://www.garmin.com/xmlschemas/TrackPointExtensionv1.xsd http://www.garmin.com/xmlschemas/PowerExtension/v1 http://www.garmin.com/xmlschemas/PowerExtensionv1.xsd http://www.topografix.com/GPX/gpx_style/0/2 http://www.topografix.com/GPX/gpx_style/0/2/gpx_style.xsd" xmlns="http://www.topografix.com/GPX/1/1" xmlns:xsi="http://www.w3.org/2001/XMLSchema-instance" xsi:schemaLocation="http://www.topografix.com/GPX/1/1 http://www.topografix.com/GPX/1/1/gpx.xsd http://www.garmin.com/xmlschemas/GpxExtensions/v3 http://www.garmin.com/xmlschemas/GpxExtensionsv3.xsd http://www.garmin.com/xmlschemas/TrackPointExtension/v1 http://www.garmin.com/xmlschemas/TrackPointExtensionv1.xsd http://www.garmin.com/xmlschemas/PowerExtension/v1 http://www.garmin.com/xmlschemas/PowerExtensionv1.xsd http://www.topografix.com/GPX/gpx_style/0/2 http://www.topografix.com/GPX/gpx_style/0/2/gpx_style.xsd" xmlns:gpxtpx="http://www.garmin.com/xmlschemas/TrackPointExtension/v1" xmlns:gpxx="http://www.garmin.com/xmlschemas/GpxExtensions/v3" xmlns:gpxpx="http://www.garmin.com/xmlschemas/PowerExtension/v1" xmlns:gpx_style="http://www.topografix.com/GPX/gpx_style/0/2">
  <metadata>
    <name>VP</name>
    <author>
      <name>gpx.studio</name>
      <link href="https://gpx.studio"/>
    </author>
  </metadata>
  <trk>
    <name>VP</name>
    <trkseg>
      <trkpt lat="51.091697" lon="3.636505">
        <ele>3.85</ele>
      </trkpt>
      <trkpt lat="51.091704" lon="3.636297">
        <ele>3.8</ele>
      </trkpt>
      <trkpt lat="51.091012" lon="3.618317">
        <ele>5.25</ele>
      </trkpt>
      <trkpt lat="51.090985" lon="3.617132">
        <ele>4.91</ele>
      </trkpt>
      <trkpt lat="51.090942" lon="3.615837">
        <ele>4.11</ele>
      </trkpt>
      <trkpt lat="51.090766" lon="3.610832">
        <ele>5</ele>
      </trkpt>
      <trkpt lat="51.090655" lon="3.60731">
        <ele>3.46</ele>
      </trkpt>
      <trkpt lat="51.090584" lon="3.604057">
        <ele>5.89</ele>
      </trkpt>
      <trkpt lat="51.090612" lon="3.602938">
        <ele>4.16</ele>
      </trkpt>
      <trkpt lat="51.09068" lon="3.601668">
        <ele>2.32</ele>
      </trkpt>
      <trkpt lat="51.090792" lon="3.600515">
        <ele>2.01</ele>
      </trkpt>
      <trkpt lat="51.090883" lon="3.599816">
        <ele>3.36</ele>
      </trkpt>
      <trkpt lat="51.090978" lon="3.599211">
        <ele>3.83</ele>
      </trkpt>
      <trkpt lat="51.091171" lon="3.598157">
        <ele>3.99</ele>
      </trkpt>
      <trkpt lat="51.091325" lon="3.59745">
        <ele>3.63</ele>
      </trkpt>
      <trkpt lat="51.091794" lon="3.5954">
        <ele>3.34</ele>
      </trkpt>
      <trkpt lat="51.091933" lon="3.594728">
        <ele>3.9</ele>
      </trkpt>
      <trkpt lat="51.09208" lon="3.593903">
        <ele>3.74</ele>
      </trkpt>
      <trkpt lat="51.092189" lon="3.593188">
        <ele>3.76</ele>
      </trkpt>
      <trkpt lat="51.092385" lon="3.591359">
        <ele>4.03</ele>
      </trkpt>
      <trkpt lat="51.092777" lon="3.587156">
        <ele>2.44</ele>
      </trkpt>
      <trkpt lat="51.092943" lon="3.585522">
        <ele>3.22</ele>
      </trkpt>
      <trkpt lat="51.093512" lon="3.581028">
        <ele>4.99</ele>
      </trkpt>
      <trkpt lat="51.093728" lon="3.579415">
        <ele>6.16</ele>
      </trkpt>
      <trkpt lat="51.094024" lon="3.57695">
        <ele>5.04</ele>
      </trkpt>
      <trkpt lat="51.094243" lon="3.574953">
        <ele>3.15</ele>
      </trkpt>
      <trkpt lat="51.094297" lon="3.574349">
        <ele>3.19</ele>
      </trkpt>
      <trkpt lat="51.094387" lon="3.573175">
        <ele>3.87</ele>
      </trkpt>
      <trkpt lat="51.094458" lon="3.572139">
        <ele>4.04</ele>
      </trkpt>
      <trkpt lat="51.094451" lon="3.5718">
        <ele>4.5</ele>
      </trkpt>
      <trkpt lat="51.094549" lon="3.568951">
        <ele>3.27</ele>
      </trkpt>
      <trkpt lat="51.094543" lon="3.568127">
        <ele>3.46</ele>
      </trkpt>
      <trkpt lat="51.094522" lon="3.567649">
        <ele>3.41</ele>
      </trkpt>
      <trkpt lat="51.094467" lon="3.567256">
        <ele>3.28</ele>
      </trkpt>
      <trkpt lat="51.09437" lon="3.56683">
        <ele>3.06</ele>
      </trkpt>
      <trkpt lat="51.094255" lon="3.566464">
        <ele>3.12</ele>
      </trkpt>
      <trkpt lat="51.094152" lon="3.566207">
        <ele>3.17</ele>
      </trkpt>
      <trkpt lat="51.094092" lon="3.566079">
        <ele>3.18</ele>
      </trkpt>
      <trkpt lat="51.093958" lon="3.565831">
        <ele>3.13</ele>
      </trkpt>
      <trkpt lat="51.093849" lon="3.565663">
        <ele>3.05</ele>
      </trkpt>
      <trkpt lat="51.093721" lon="3.56549">
        <ele>3.25</ele>
      </trkpt>
      <trkpt lat="51.093542" lon="3.565292">
        <ele>3.72</ele>
      </trkpt>
      <trkpt lat="51.093342" lon="3.565115">
        <ele>4.03</ele>
      </trkpt>
      <trkpt lat="51.093046" lon="3.564935">
        <ele>4.14</ele>
      </trkpt>
      <trkpt lat="51.092525" lon="3.564739">
        <ele>4.21</ele>
      </trkpt>
      <trkpt lat="51.09177" lon="3.564482">
        <ele>4.6</ele>
      </trkpt>
      <trkpt lat="51.091105" lon="3.564233">
        <ele>4.04</ele>
      </trkpt>
      <trkpt lat="51.090535" lon="3.564055">
        <ele>4.58</ele>
      </trkpt>
      <trkpt lat="51.089134" lon="3.563565">
        <ele>6.57</ele>
      </trkpt>
      <trkpt lat="51.088836" lon="3.563466">
        <ele>6.45</ele>
      </trkpt>
      <trkpt lat="51.088494" lon="3.563371">
        <ele>6.33</ele>
      </trkpt>
      <trkpt lat="51.088094" lon="3.563291">
        <ele>6.24</ele>
      </trkpt>
      <trkpt lat="51.087684" lon="3.563235">
        <ele>6.17</ele>
      </trkpt>
      <trkpt lat="51.087148" lon="3.563231">
        <ele>6.8</ele>
      </trkpt>
      <trkpt lat="51.085807" lon="3.563302">
        <ele>6.81</ele>
      </trkpt>
      <trkpt lat="51.084019" lon="3.563462">
        <ele>8.05</ele>
      </trkpt>
      <trkpt lat="51.083123" lon="3.563564">
        <ele>8.18</ele>
      </trkpt>
      <trkpt lat="51.082679" lon="3.563615">
        <ele>8.24</ele>
      </trkpt>
      <trkpt lat="51.08194" lon="3.563719">
        <ele>4.95</ele>
      </trkpt>
      <trkpt lat="51.081788" lon="3.563766">
        <ele>4.56</ele>
      </trkpt>
      <trkpt lat="51.081597" lon="3.563825">
        <ele>5.04</ele>
      </trkpt>
      <trkpt lat="51.080928" lon="3.564091">
        <ele>7</ele>
      </trkpt>
      <trkpt lat="51.080537" lon="3.564298">
        <ele>7</ele>
      </trkpt>
      <trkpt lat="51.080062" lon="3.564596">
        <ele>6.83</ele>
      </trkpt>
      <trkpt lat="51.079685" lon="3.564884">
        <ele>6.55</ele>
      </trkpt>
      <trkpt lat="51.074961" lon="3.568895">
        <ele>8.45</ele>
      </trkpt>
      <trkpt lat="51.073457" lon="3.570151">
        <ele>6.59</ele>
      </trkpt>
      <trkpt lat="51.073285" lon="3.57031">
        <ele>6.11</ele>
      </trkpt>
      <trkpt lat="51.073186" lon="3.570389">
        <ele>5.94</ele>
      </trkpt>
      <trkpt lat="51.072665" lon="3.570866">
        <ele>5.98</ele>
      </trkpt>
      <trkpt lat="51.072112" lon="3.571332">
        <ele>5.32</ele>
      </trkpt>
      <trkpt lat="51.071743" lon="3.571608">
        <ele>5.24</ele>
      </trkpt>
      <trkpt lat="51.071461" lon="3.571796">
        <ele>5.92</ele>
      </trkpt>
      <trkpt lat="51.071158" lon="3.571976">
        <ele>6.65</ele>
      </trkpt>
      <trkpt lat="51.070597" lon="3.572239">
        <ele>6.99</ele>
      </trkpt>
      <trkpt lat="51.070157" lon="3.572401">
        <ele>7.03</ele>
      </trkpt>
      <trkpt lat="51.069963" lon="3.572461">
        <ele>7.26</ele>
      </trkpt>
      <trkpt lat="51.069611" lon="3.572544">
        <ele>7.68</ele>
      </trkpt>
      <trkpt lat="51.069184" lon="3.572617">
        <ele>8.19</ele>
      </trkpt>
      <trkpt lat="51.068727" lon="3.572635">
        <ele>8.74</ele>
      </trkpt>
      <trkpt lat="51.068293" lon="3.572613">
        <ele>8.32</ele>
      </trkpt>
      <trkpt lat="51.067979" lon="3.57258">
        <ele>7.33</ele>
      </trkpt>
      <trkpt lat="51.0675" lon="3.572485">
        <ele>6.69</ele>
      </trkpt>
      <trkpt lat="51.06623" lon="3.572072">
        <ele>5.1</ele>
      </trkpt>
      <trkpt lat="51.065689" lon="3.571831">
        <ele>5.46</ele>
      </trkpt>
      <trkpt lat="51.065084" lon="3.571641">
        <ele>6.26</ele>
      </trkpt>
      <trkpt lat="51.064506" lon="3.571518">
        <ele>4.52</ele>
      </trkpt>
      <trkpt lat="51.062535" lon="3.570884">
        <ele>8.6</ele>
      </trkpt>
      <trkpt lat="51.05852" lon="3.569541">
        <ele>6.01</ele>
      </trkpt>
      <trkpt lat="51.057622" lon="3.569256">
        <ele>5.39</ele>
      </trkpt>
      <trkpt lat="51.057382" lon="3.56917">
        <ele>5.29</ele>
      </trkpt>
      <trkpt lat="51.055457" lon="3.56857">
        <ele>6.1</ele>
      </trkpt>
      <trkpt lat="51.052312" lon="3.567536">
        <ele>5.38</ele>
      </trkpt>
      <trkpt lat="51.051459" lon="3.567134">
        <ele>4.78</ele>
      </trkpt>
      <trkpt lat="51.050634" lon="3.566699">
        <ele>4.98</ele>
      </trkpt>
      <trkpt lat="51.049676" lon="3.566085">
        <ele>6.76</ele>
      </trkpt>
      <trkpt lat="51.048769" lon="3.56541">
        <ele>8</ele>
      </trkpt>
      <trkpt lat="51.046968" lon="3.563724">
        <ele>6.53</ele>
      </trkpt>
      <trkpt lat="51.044936" lon="3.561579">
        <ele>6.61</ele>
      </trkpt>
      <trkpt lat="51.042917" lon="3.559154">
        <ele>6.73</ele>
      </trkpt>
      <trkpt lat="51.041213" lon="3.557231">
        <ele>7.03</ele>
      </trkpt>
      <trkpt lat="51.03999" lon="3.556187">
        <ele>7.13</ele>
      </trkpt>
      <trkpt lat="51.039783" lon="3.556035">
        <ele>7.44</ele>
      </trkpt>
      <trkpt lat="51.039087" lon="3.555546">
        <ele>8.94</ele>
      </trkpt>
      <trkpt lat="51.03869" lon="3.555295">
        <ele>8.64</ele>
      </trkpt>
      <trkpt lat="51.037739" lon="3.554785">
        <ele>8.41</ele>
      </trkpt>
      <trkpt lat="51.037739" lon="3.554785">
        <ele>8.41</ele>
      </trkpt>
      <trkpt lat="51.03703" lon="3.554405">
        <ele>8.23</ele>
      </trkpt>
      <trkpt lat="51.035593" lon="3.553679">
        <ele>7.5</ele>
      </trkpt>
      <trkpt lat="51.035337" lon="3.553463">
        <ele>7.47</ele>
      </trkpt>
      <trkpt lat="51.034276" lon="3.552897">
        <ele>6.92</ele>
      </trkpt>
      <trkpt lat="51.034125" lon="3.552837">
        <ele>6.74</ele>
      </trkpt>
      <trkpt lat="51.033522" lon="3.552485">
        <ele>6.02</ele>
      </trkpt>
      <trkpt lat="51.033464" lon="3.552436">
        <ele>6</ele>
      </trkpt>
      <trkpt lat="51.033246" lon="3.552264">
        <ele>6</ele>
      </trkpt>
      <trkpt lat="51.033044" lon="3.552087">
        <ele>6.3</ele>
      </trkpt>
      <trkpt lat="51.032274" lon="3.551501">
        <ele>7.86</ele>
      </trkpt>
      <trkpt lat="51.032156" lon="3.551444">
        <ele>8.22</ele>
      </trkpt>
      <trkpt lat="51.032038" lon="3.551339">
        <ele>8.55</ele>
      </trkpt>
      <trkpt lat="51.030627" lon="3.55042">
        <ele>6.53</ele>
      </trkpt>
      <trkpt lat="51.030408" lon="3.550309">
        <ele>6.78</ele>
      </trkpt>
      <trkpt lat="51.029765" lon="3.550014">
        <ele>6.26</ele>
      </trkpt>
      <trkpt lat="51.029232" lon="3.549795">
        <ele>6</ele>
      </trkpt>
      <trkpt lat="51.02525" lon="3.548265">
        <ele>4.98</ele>
      </trkpt>
      <trkpt lat="51.023306" lon="3.547573">
        <ele>5.33</ele>
      </trkpt>
      <trkpt lat="51.022798" lon="3.547408">
        <ele>6</ele>
      </trkpt>
      <trkpt lat="51.02196" lon="3.547216">
        <ele>6.9</ele>
      </trkpt>
      <trkpt lat="51.020796" lon="3.547138">
        <ele>7.11</ele>
      </trkpt>
      <trkpt lat="51.020113" lon="3.547197">
        <ele>6.87</ele>
      </trkpt>
      <trkpt lat="51.016618" lon="3.547545">
        <ele>5.78</ele>
      </trkpt>
      <trkpt lat="51.015991" lon="3.547553">
        <ele>7.97</ele>
      </trkpt>
      <trkpt lat="51.0154" lon="3.547454">
        <ele>6.38</ele>
      </trkpt>
      <trkpt lat="51.014036" lon="3.547084">
        <ele>3.79</ele>
      </trkpt>
      <trkpt lat="51.011435" lon="3.546438">
        <ele>5.03</ele>
      </trkpt>
      <trkpt lat="51.00799" lon="3.545369">
        <ele>3.33</ele>
      </trkpt>
      <trkpt lat="51.007447" lon="3.545093">
        <ele>4.11</ele>
      </trkpt>
      <trkpt lat="51.006951" lon="3.544716">
        <ele>4</ele>
      </trkpt>
      <trkpt lat="51.005098" lon="3.543184">
        <ele>5.22</ele>
      </trkpt>
      <trkpt lat="51.003994" lon="3.542249">
        <ele>5.4</ele>
      </trkpt>
      <trkpt lat="51.002907" lon="3.54135">
        <ele>4.97</ele>
      </trkpt>
      <trkpt lat="51.002662" lon="3.541132">
        <ele>5</ele>
      </trkpt>
      <trkpt lat="51.002576" lon="3.541005">
        <ele>5.05</ele>
      </trkpt>
      <trkpt lat="51.002492" lon="3.540905">
        <ele>5.08</ele>
      </trkpt>
      <trkpt lat="51.002219" lon="3.54065">
        <ele>5.04</ele>
      </trkpt>
      <trkpt lat="51.00166" lon="3.540064">
        <ele>4.79</ele>
      </trkpt>
      <trkpt lat="51.001139" lon="3.539464">
        <ele>5.37</ele>
      </trkpt>
      <trkpt lat="50.998566" lon="3.536423">
        <ele>5.08</ele>
      </trkpt>
      <trkpt lat="50.997738" lon="3.535397">
        <ele>5.13</ele>
      </trkpt>
      <trkpt lat="50.993906" lon="3.53055">
        <ele>1.07</ele>
      </trkpt>
      <trkpt lat="50.993751" lon="3.530354">
        <ele>1.28</ele>
      </trkpt>
      <trkpt lat="50.993532" lon="3.530145">
        <ele>1.63</ele>
      </trkpt>
      <trkpt lat="50.993334" lon="3.52991">
        <ele>3.31</ele>
      </trkpt>
      <trkpt lat="50.992803" lon="3.529236">
        <ele>6.55</ele>
      </trkpt>
      <trkpt lat="50.992715" lon="3.529094">
        <ele>6.86</ele>
      </trkpt>
      <trkpt lat="50.992589" lon="3.528931">
        <ele>6.91</ele>
      </trkpt>
      <trkpt lat="50.990327" lon="3.526173">
        <ele>4.76</ele>
      </trkpt>
      <trkpt lat="50.989452" lon="3.525114">
        <ele>6.36</ele>
      </trkpt>
      <trkpt lat="50.988742" lon="3.524306">
        <ele>7.54</ele>
      </trkpt>
      <trkpt lat="50.988518" lon="3.524069">
        <ele>7.82</ele>
      </trkpt>
      <trkpt lat="50.988311" lon="3.523841">
        <ele>7.7</ele>
      </trkpt>
      <trkpt lat="50.98828" lon="3.523909">
        <ele>7.73</ele>
      </trkpt>
      <trkpt lat="50.98826" lon="3.52398">
        <ele>7.68</ele>
      </trkpt>
      <trkpt lat="50.988301" lon="3.524182">
        <ele>7.6</ele>
      </trkpt>
      <trkpt lat="50.988448" lon="3.524567">
        <ele>7.26</ele>
      </trkpt>
      <trkpt lat="50.988531" lon="3.524754">
        <ele>7</ele>
      </trkpt>
      <trkpt lat="50.988577" lon="3.524814">
        <ele>6.93</ele>
      </trkpt>
      <trkpt lat="50.988715" lon="3.524908">
        <ele>6.82</ele>
      </trkpt>
      <trkpt lat="50.988773" lon="3.524915">
        <ele>6.81</ele>
      </trkpt>
      <trkpt lat="50.988862" lon="3.524906">
        <ele>6.82</ele>
      </trkpt>
      <trkpt lat="50.988966" lon="3.524841">
        <ele>6.87</ele>
      </trkpt>
      <trkpt lat="50.989036" lon="3.524779">
        <ele>6.91</ele>
      </trkpt>
      <trkpt lat="50.989122" lon="3.524675">
        <ele>6.97</ele>
      </trkpt>
      <trkpt lat="50.989188" lon="3.524562">
        <ele>7.03</ele>
      </trkpt>
      <trkpt lat="50.989308" lon="3.524322">
        <ele>7.14</ele>
      </trkpt>
      <trkpt lat="50.989383" lon="3.524122">
        <ele>7.24</ele>
      </trkpt>
      <trkpt lat="50.989436" lon="3.523952">
        <ele>7.32</ele>
      </trkpt>
      <trkpt lat="50.989466" lon="3.523668">
        <ele>7.44</ele>
      </trkpt>
      <trkpt lat="50.989462" lon="3.523568">
        <ele>7.49</ele>
      </trkpt>
      <trkpt lat="50.989443" lon="3.523422">
        <ele>7.35</ele>
      </trkpt>
      <trkpt lat="50.989416" lon="3.523312">
        <ele>7.24</ele>
      </trkpt>
      <trkpt lat="50.989365" lon="3.523187">
        <ele>7.11</ele>
      </trkpt>
      <trkpt lat="50.989307" lon="3.523093">
        <ele>7.01</ele>
      </trkpt>
      <trkpt lat="50.989234" lon="3.523012">
        <ele>7</ele>
      </trkpt>
      <trkpt lat="50.989158" lon="3.52295">
        <ele>7</ele>
      </trkpt>
      <trkpt lat="50.988974" lon="3.522842">
        <ele>7</ele>
      </trkpt>
      <trkpt lat="50.988787" lon="3.522831">
        <ele>7</ele>
      </trkpt>
      <trkpt lat="50.988682" lon="3.522839">
        <ele>7</ele>
      </trkpt>
      <trkpt lat="50.988612" lon="3.522812">
        <ele>7</ele>
      </trkpt>
      <trkpt lat="50.988544" lon="3.52297">
        <ele>7</ele>
      </trkpt>
      <trkpt lat="50.987966" lon="3.522321">
        <ele>7</ele>
      </trkpt>
      <trkpt lat="50.98794" lon="3.52218">
        <ele>6.91</ele>
      </trkpt>
      <trkpt lat="50.987157" lon="3.521294">
        <ele>6.61</ele>
      </trkpt>
      <trkpt lat="50.987003" lon="3.521104">
        <ele>6.79</ele>
      </trkpt>
      <trkpt lat="50.985888" lon="3.519722">
        <ele>8.7</ele>
      </trkpt>
      <trkpt lat="50.984624" lon="3.518135">
        <ele>6.71</ele>
      </trkpt>
      <trkpt lat="50.984624" lon="3.518135">
        <ele>6.71</ele>
      </trkpt>
      <trkpt lat="50.983989" lon="3.517337">
        <ele>5.71</ele>
      </trkpt>
      <trkpt lat="50.983802" lon="3.517079">
        <ele>4.81</ele>
      </trkpt>
      <trkpt lat="50.983636" lon="3.516811">
        <ele>3.88</ele>
      </trkpt>
      <trkpt lat="50.983461" lon="3.516489">
        <ele>3.21</ele>
      </trkpt>
      <trkpt lat="50.983166" lon="3.515831">
        <ele>4.19</ele>
      </trkpt>
      <trkpt lat="50.983028" lon="3.515425">
        <ele>4.47</ele>
      </trkpt>
      <trkpt lat="50.982849" lon="3.514818">
        <ele>3.9</ele>
      </trkpt>
      <trkpt lat="50.982645" lon="3.513809">
        <ele>3.35</ele>
      </trkpt>
      <trkpt lat="50.982605" lon="3.513634">
        <ele>3.9</ele>
      </trkpt>
      <trkpt lat="50.982414" lon="3.512926">
        <ele>5.38</ele>
      </trkpt>
      <trkpt lat="50.98227" lon="3.512514">
        <ele>5.51</ele>
      </trkpt>
      <trkpt lat="50.982133" lon="3.512264">
        <ele>5.37</ele>
      </trkpt>
      <trkpt lat="50.981805" lon="3.511768">
        <ele>6.16</ele>
      </trkpt>
      <trkpt lat="50.981511" lon="3.511388">
        <ele>7.07</ele>
      </trkpt>
      <trkpt lat="50.981375" lon="3.511247">
        <ele>7.41</ele>
      </trkpt>
      <trkpt lat="50.981102" lon="3.511024">
        <ele>7.95</ele>
      </trkpt>
      <trkpt lat="50.980399" lon="3.510631">
        <ele>7.41</ele>
      </trkpt>
      <trkpt lat="50.980249" lon="3.510521">
        <ele>7.12</ele>
      </trkpt>
      <trkpt lat="50.980096" lon="3.510385">
        <ele>6.84</ele>
      </trkpt>
      <trkpt lat="50.979935" lon="3.510181">
        <ele>6.79</ele>
      </trkpt>
      <trkpt lat="50.979846" lon="3.510041">
        <ele>6.73</ele>
      </trkpt>
      <trkpt lat="50.979846" lon="3.510041">
        <ele>6.73</ele>
      </trkpt>
      <trkpt lat="50.979761" lon="3.509908">
        <ele>6.67</ele>
      </trkpt>
      <trkpt lat="50.979643" lon="3.50969">
        <ele>6.58</ele>
      </trkpt>
      <trkpt lat="50.979454" lon="3.509287">
        <ele>6.38</ele>
      </trkpt>
      <trkpt lat="50.976693" lon="3.50286">
        <ele>5</ele>
      </trkpt>
      <trkpt lat="50.976644" lon="3.50277">
        <ele>5</ele>
      </trkpt>
      <trkpt lat="50.976539" lon="3.502732">
        <ele>5</ele>
      </trkpt>
      <trkpt lat="50.976503" lon="3.502691">
        <ele>5</ele>
      </trkpt>
      <trkpt lat="50.976282" lon="3.502172">
        <ele>5.03</ele>
      </trkpt>
      <trkpt lat="50.976256" lon="3.50209">
        <ele>5.06</ele>
      </trkpt>
      <trkpt lat="50.9762" lon="3.50175">
        <ele>5.15</ele>
      </trkpt>
      <trkpt lat="50.976154" lon="3.501582">
        <ele>5.15</ele>
      </trkpt>
      <trkpt lat="50.975085" lon="3.499082">
        <ele>6.82</ele>
      </trkpt>
      <trkpt lat="50.971189" lon="3.490014">
        <ele>6</ele>
      </trkpt>
      <trkpt lat="50.970762" lon="3.489056">
        <ele>6</ele>
      </trkpt>
      <trkpt lat="50.970351" lon="3.488165">
        <ele>6.9</ele>
      </trkpt>
      <trkpt lat="50.969711" lon="3.486811">
        <ele>6.98</ele>
      </trkpt>
      <trkpt lat="50.969094" lon="3.485559">
        <ele>6.69</ele>
      </trkpt>
      <trkpt lat="50.968607" lon="3.48462">
        <ele>5.13</ele>
      </trkpt>
      <trkpt lat="50.96764" lon="3.482841">
        <ele>6.06</ele>
      </trkpt>
      <trkpt lat="50.965227" lon="3.478626">
        <ele>8.52</ele>
      </trkpt>
      <trkpt lat="50.965114" lon="3.478412">
        <ele>7.7</ele>
      </trkpt>
      <trkpt lat="50.965092" lon="3.478297">
        <ele>7.4</ele>
      </trkpt>
      <trkpt lat="50.965089" lon="3.478225">
        <ele>7.23</ele>
      </trkpt>
      <trkpt lat="50.965104" lon="3.478144">
        <ele>7.08</ele>
      </trkpt>
      <trkpt lat="50.965198" lon="3.477822">
        <ele>6.75</ele>
      </trkpt>
      <trkpt lat="50.965234" lon="3.477619">
        <ele>6.53</ele>
      </trkpt>
      <trkpt lat="50.965235" lon="3.477446">
        <ele>6.28</ele>
      </trkpt>
      <trkpt lat="50.965205" lon="3.477247">
        <ele>6</ele>
      </trkpt>
      <trkpt lat="50.965161" lon="3.477094">
        <ele>5.82</ele>
      </trkpt>
      <trkpt lat="50.965108" lon="3.476973">
        <ele>5.67</ele>
      </trkpt>
      <trkpt lat="50.965049" lon="3.476877">
        <ele>5.56</ele>
      </trkpt>
      <trkpt lat="50.964971" lon="3.476791">
        <ele>5.45</ele>
      </trkpt>
      <trkpt lat="50.964843" lon="3.476699">
        <ele>5.34</ele>
      </trkpt>
      <trkpt lat="50.964693" lon="3.476635">
        <ele>5.27</ele>
      </trkpt>
      <trkpt lat="50.964297" lon="3.476569">
        <ele>5.17</ele>
      </trkpt>
      <trkpt lat="50.96417" lon="3.476528">
        <ele>5.09</ele>
      </trkpt>
      <trkpt lat="50.964073" lon="3.476472">
        <ele>5.03</ele>
      </trkpt>
      <trkpt lat="50.963989" lon="3.4764">
        <ele>5</ele>
      </trkpt>
      <trkpt lat="50.963865" lon="3.476239">
        <ele>5</ele>
      </trkpt>
      <trkpt lat="50.960324" lon="3.470059">
        <ele>6.38</ele>
      </trkpt>
      <trkpt lat="50.95948" lon="3.468508">
        <ele>4.67</ele>
      </trkpt>
      <trkpt lat="50.959112" lon="3.467866">
        <ele>4.74</ele>
      </trkpt>
      <trkpt lat="50.958275" lon="3.466445">
        <ele>5.22</ele>
      </trkpt>
      <trkpt lat="50.956838" lon="3.464232">
        <ele>5</ele>
      </trkpt>
      <trkpt lat="50.955449" lon="3.462398">
        <ele>4</ele>
      </trkpt>
      <trkpt lat="50.953928" lon="3.460639">
        <ele>5.05</ele>
      </trkpt>
      <trkpt lat="50.952326" lon="3.459093">
        <ele>7.49</ele>
      </trkpt>
      <trkpt lat="50.951544" lon="3.458355">
        <ele>6.43</ele>
      </trkpt>
      <trkpt lat="50.944041" lon="3.451582">
        <ele>6.32</ele>
      </trkpt>
      <trkpt lat="50.944041" lon="3.451582">
        <ele>9.23</ele>
      </trkpt>
      <trkpt lat="50.943491" lon="3.451009">
        <ele>9.16</ele>
      </trkpt>
      <trkpt lat="50.94294" lon="3.450484">
        <ele>9.19</ele>
      </trkpt>
      <trkpt lat="50.942931" lon="3.450386">
        <ele>9</ele>
      </trkpt>
      <trkpt lat="50.942936" lon="3.450333">
        <ele>8.98</ele>
      </trkpt>
      <trkpt lat="50.942951" lon="3.450275">
        <ele>8.99</ele>
      </trkpt>
      <trkpt lat="50.943009" lon="3.450186">
        <ele>9</ele>
      </trkpt>
      <trkpt lat="50.94268" lon="3.450058">
        <ele>8.86</ele>
      </trkpt>
      <trkpt lat="50.942564" lon="3.450003">
        <ele>8.68</ele>
      </trkpt>
      <trkpt lat="50.942428" lon="3.449979">
        <ele>9</ele>
      </trkpt>
      <trkpt lat="50.94273" lon="3.450277">
        <ele>9.11</ele>
      </trkpt>
      <trkpt lat="50.94273" lon="3.450277">
        <ele>9.11</ele>
      </trkpt>
      <trkpt lat="50.94273" lon="3.450277">
        <ele>9.11</ele>
      </trkpt>
      <trkpt lat="50.943491" lon="3.451009">
        <ele>9.16</ele>
      </trkpt>
      <trkpt lat="50.944041" lon="3.451582">
        <ele>9.23</ele>
      </trkpt>
      <trkpt lat="50.951544" lon="3.458355">
        <ele>8.98</ele>
      </trkpt>
      <trkpt lat="50.952326" lon="3.459093">
        <ele>8.9</ele>
      </trkpt>
      <trkpt lat="50.952326" lon="3.459093">
        <ele>7.49</ele>
      </trkpt>
      <trkpt lat="50.953928" lon="3.460639">
        <ele>5.05</ele>
      </trkpt>
      <trkpt lat="50.955449" lon="3.462398">
        <ele>4</ele>
      </trkpt>
      <trkpt lat="50.956838" lon="3.464232">
        <ele>5</ele>
      </trkpt>
      <trkpt lat="50.958275" lon="3.466445">
        <ele>5.22</ele>
      </trkpt>
      <trkpt lat="50.959112" lon="3.467866">
        <ele>4.74</ele>
      </trkpt>
      <trkpt lat="50.95948" lon="3.468508">
        <ele>4.67</ele>
      </trkpt>
      <trkpt lat="50.960324" lon="3.470059">
        <ele>6.38</ele>
      </trkpt>
      <trkpt lat="50.963865" lon="3.476239">
        <ele>5</ele>
      </trkpt>
      <trkpt lat="50.963989" lon="3.4764">
        <ele>5</ele>
      </trkpt>
      <trkpt lat="50.964073" lon="3.476472">
        <ele>5.03</ele>
      </trkpt>
      <trkpt lat="50.96417" lon="3.476528">
        <ele>5.09</ele>
      </trkpt>
      <trkpt lat="50.964297" lon="3.476569">
        <ele>5.17</ele>
      </trkpt>
      <trkpt lat="50.964693" lon="3.476635">
        <ele>5.27</ele>
      </trkpt>
      <trkpt lat="50.964843" lon="3.476699">
        <ele>5.34</ele>
      </trkpt>
      <trkpt lat="50.964971" lon="3.476791">
        <ele>5.45</ele>
      </trkpt>
      <trkpt lat="50.965049" lon="3.476877">
        <ele>5.56</ele>
      </trkpt>
      <trkpt lat="50.965108" lon="3.476973">
        <ele>5.67</ele>
      </trkpt>
      <trkpt lat="50.965161" lon="3.477094">
        <ele>5.82</ele>
      </trkpt>
      <trkpt lat="50.965205" lon="3.477247">
        <ele>6</ele>
      </trkpt>
      <trkpt lat="50.965235" lon="3.477446">
        <ele>6.28</ele>
      </trkpt>
      <trkpt lat="50.965234" lon="3.477619">
        <ele>6.53</ele>
      </trkpt>
      <trkpt lat="50.965198" lon="3.477822">
        <ele>6.75</ele>
      </trkpt>
      <trkpt lat="50.965104" lon="3.478144">
        <ele>7.08</ele>
      </trkpt>
      <trkpt lat="50.965089" lon="3.478225">
        <ele>7.23</ele>
      </trkpt>
      <trkpt lat="50.965092" lon="3.478297">
        <ele>7.4</ele>
      </trkpt>
      <trkpt lat="50.965114" lon="3.478412">
        <ele>7.7</ele>
      </trkpt>
      <trkpt lat="50.965227" lon="3.478626">
        <ele>8.52</ele>
      </trkpt>
      <trkpt lat="50.96764" lon="3.482841">
        <ele>6.06</ele>
      </trkpt>
      <trkpt lat="50.968607" lon="3.48462">
        <ele>5.13</ele>
      </trkpt>
      <trkpt lat="50.969094" lon="3.485559">
        <ele>6.69</ele>
      </trkpt>
      <trkpt lat="50.969711" lon="3.486811">
        <ele>6.98</ele>
      </trkpt>
      <trkpt lat="50.970351" lon="3.488165">
        <ele>6.9</ele>
      </trkpt>
      <trkpt lat="50.970762" lon="3.489056">
        <ele>6</ele>
      </trkpt>
      <trkpt lat="50.971189" lon="3.490014">
        <ele>6</ele>
      </trkpt>
      <trkpt lat="50.975085" lon="3.499082">
        <ele>6.82</ele>
      </trkpt>
      <trkpt lat="50.976154" lon="3.501582">
        <ele>5.15</ele>
      </trkpt>
      <trkpt lat="50.9762" lon="3.50175">
        <ele>5.15</ele>
      </trkpt>
      <trkpt lat="50.976256" lon="3.50209">
        <ele>5.06</ele>
      </trkpt>
      <trkpt lat="50.976282" lon="3.502172">
        <ele>5.03</ele>
      </trkpt>
      <trkpt lat="50.976503" lon="3.502691">
        <ele>5</ele>
      </trkpt>
      <trkpt lat="50.976539" lon="3.502732">
        <ele>5</ele>
      </trkpt>
      <trkpt lat="50.976644" lon="3.50277">
        <ele>5</ele>
      </trkpt>
      <trkpt lat="50.976693" lon="3.50286">
        <ele>5</ele>
      </trkpt>
      <trkpt lat="50.979454" lon="3.509287">
        <ele>6.38</ele>
      </trkpt>
      <trkpt lat="50.979643" lon="3.50969">
        <ele>6.58</ele>
      </trkpt>
      <trkpt lat="50.979761" lon="3.509908">
        <ele>6.67</ele>
      </trkpt>
      <trkpt lat="50.979935" lon="3.510181">
        <ele>6.79</ele>
      </trkpt>
      <trkpt lat="50.980096" lon="3.510385">
        <ele>6.84</ele>
      </trkpt>
      <trkpt lat="50.980249" lon="3.510521">
        <ele>7.12</ele>
      </trkpt>
      <trkpt lat="50.980399" lon="3.510631">
        <ele>7.41</ele>
      </trkpt>
      <trkpt lat="50.981102" lon="3.511024">
        <ele>7.95</ele>
      </trkpt>
      <trkpt lat="50.981375" lon="3.511247">
        <ele>7.41</ele>
      </trkpt>
      <trkpt lat="50.981511" lon="3.511388">
        <ele>7.07</ele>
      </trkpt>
      <trkpt lat="50.981805" lon="3.511768">
        <ele>6.16</ele>
      </trkpt>
      <trkpt lat="50.982133" lon="3.512264">
        <ele>5.37</ele>
      </trkpt>
      <trkpt lat="50.98227" lon="3.512514">
        <ele>5.51</ele>
      </trkpt>
      <trkpt lat="50.982414" lon="3.512926">
        <ele>5.38</ele>
      </trkpt>
      <trkpt lat="50.982605" lon="3.513634">
        <ele>3.9</ele>
      </trkpt>
      <trkpt lat="50.982645" lon="3.513809">
        <ele>3.35</ele>
      </trkpt>
      <trkpt lat="50.982849" lon="3.514818">
        <ele>3.9</ele>
      </trkpt>
      <trkpt lat="50.983028" lon="3.515425">
        <ele>4.47</ele>
      </trkpt>
      <trkpt lat="50.983166" lon="3.515831">
        <ele>4.19</ele>
      </trkpt>
      <trkpt lat="50.983461" lon="3.516489">
        <ele>3.21</ele>
      </trkpt>
      <trkpt lat="50.983632" lon="3.516804">
        <ele>3.86</ele>
      </trkpt>
      <trkpt lat="50.983802" lon="3.517079">
        <ele>4.81</ele>
      </trkpt>
      <trkpt lat="50.983989" lon="3.517337">
        <ele>5.71</ele>
      </trkpt>
      <trkpt lat="50.985888" lon="3.519722">
        <ele>8.7</ele>
      </trkpt>
      <trkpt lat="50.987003" lon="3.521104">
        <ele>6.79</ele>
      </trkpt>
      <trkpt lat="50.987157" lon="3.521294">
        <ele>6.61</ele>
      </trkpt>
      <trkpt lat="50.98794" lon="3.52218">
        <ele>6.91</ele>
      </trkpt>
      <trkpt lat="50.987966" lon="3.522321">
        <ele>7</ele>
      </trkpt>
      <trkpt lat="50.988544" lon="3.52297">
        <ele>7</ele>
      </trkpt>
      <trkpt lat="50.988612" lon="3.522812">
        <ele>7</ele>
      </trkpt>
      <trkpt lat="50.988682" lon="3.522839">
        <ele>7</ele>
      </trkpt>
      <trkpt lat="50.988787" lon="3.522831">
        <ele>7</ele>
      </trkpt>
      <trkpt lat="50.988974" lon="3.522842">
        <ele>7</ele>
      </trkpt>
      <trkpt lat="50.989158" lon="3.52295">
        <ele>7</ele>
      </trkpt>
      <trkpt lat="50.989225" lon="3.523005">
        <ele>7</ele>
      </trkpt>
      <trkpt lat="50.989307" lon="3.523093">
        <ele>7.01</ele>
      </trkpt>
      <trkpt lat="50.989365" lon="3.523187">
        <ele>7.11</ele>
      </trkpt>
      <trkpt lat="50.989416" lon="3.523312">
        <ele>7.24</ele>
      </trkpt>
      <trkpt lat="50.989443" lon="3.523422">
        <ele>7.35</ele>
      </trkpt>
      <trkpt lat="50.989462" lon="3.523568">
        <ele>7.49</ele>
      </trkpt>
      <trkpt lat="50.989466" lon="3.523668">
        <ele>7.44</ele>
      </trkpt>
      <trkpt lat="50.989436" lon="3.523952">
        <ele>7.32</ele>
      </trkpt>
      <trkpt lat="50.989383" lon="3.524122">
        <ele>7.24</ele>
      </trkpt>
      <trkpt lat="50.989308" lon="3.524322">
        <ele>7.14</ele>
      </trkpt>
      <trkpt lat="50.989188" lon="3.524562">
        <ele>7.03</ele>
      </trkpt>
      <trkpt lat="50.989122" lon="3.524675">
        <ele>6.97</ele>
      </trkpt>
      <trkpt lat="50.989036" lon="3.524779">
        <ele>6.91</ele>
      </trkpt>
      <trkpt lat="50.988966" lon="3.524841">
        <ele>6.87</ele>
      </trkpt>
      <trkpt lat="50.988862" lon="3.524906">
        <ele>6.82</ele>
      </trkpt>
      <trkpt lat="50.988773" lon="3.524915">
        <ele>6.81</ele>
      </trkpt>
      <trkpt lat="50.988715" lon="3.524908">
        <ele>6.82</ele>
      </trkpt>
      <trkpt lat="50.988616" lon="3.524849">
        <ele>6.89</ele>
      </trkpt>
      <trkpt lat="50.988577" lon="3.524814">
        <ele>6.93</ele>
      </trkpt>
      <trkpt lat="50.988531" lon="3.524754">
        <ele>7</ele>
      </trkpt>
      <trkpt lat="50.988448" lon="3.524567">
        <ele>7.26</ele>
      </trkpt>
      <trkpt lat="50.988422" lon="3.52436">
        <ele>7.48</ele>
      </trkpt>
      <trkpt lat="50.988457" lon="3.524202">
        <ele>7.65</ele>
      </trkpt>
      <trkpt lat="50.988518" lon="3.524069">
        <ele>7.82</ele>
      </trkpt>
      <trkpt lat="50.988742" lon="3.524306">
        <ele>7.54</ele>
      </trkpt>
      <trkpt lat="50.989452" lon="3.525114">
        <ele>6.36</ele>
      </trkpt>
      <trkpt lat="50.990327" lon="3.526173">
        <ele>4.76</ele>
      </trkpt>
      <trkpt lat="50.992589" lon="3.528931">
        <ele>6.91</ele>
      </trkpt>
      <trkpt lat="50.992715" lon="3.529094">
        <ele>6.86</ele>
      </trkpt>
      <trkpt lat="50.992803" lon="3.529236">
        <ele>6.55</ele>
      </trkpt>
      <trkpt lat="50.993334" lon="3.52991">
        <ele>3.31</ele>
      </trkpt>
      <trkpt lat="50.993532" lon="3.530145">
        <ele>1.63</ele>
      </trkpt>
      <trkpt lat="50.993751" lon="3.530354">
        <ele>1.28</ele>
      </trkpt>
      <trkpt lat="50.993906" lon="3.53055">
        <ele>1.07</ele>
      </trkpt>
      <trkpt lat="50.997738" lon="3.535397">
        <ele>5.13</ele>
      </trkpt>
      <trkpt lat="50.998566" lon="3.536423">
        <ele>5.08</ele>
      </trkpt>
      <trkpt lat="51.001139" lon="3.539464">
        <ele>5.37</ele>
      </trkpt>
      <trkpt lat="51.00166" lon="3.540064">
        <ele>4.79</ele>
      </trkpt>
      <trkpt lat="51.002219" lon="3.54065">
        <ele>5.04</ele>
      </trkpt>
      <trkpt lat="51.002492" lon="3.540905">
        <ele>5.08</ele>
      </trkpt>
      <trkpt lat="51.002576" lon="3.541005">
        <ele>5.05</ele>
      </trkpt>
      <trkpt lat="51.002662" lon="3.541132">
        <ele>5</ele>
      </trkpt>
      <trkpt lat="51.002907" lon="3.54135">
        <ele>4.97</ele>
      </trkpt>
      <trkpt lat="51.003994" lon="3.542249">
        <ele>5.4</ele>
      </trkpt>
      <trkpt lat="51.005098" lon="3.543184">
        <ele>5.22</ele>
      </trkpt>
      <trkpt lat="51.006951" lon="3.544716">
        <ele>4</ele>
      </trkpt>
      <trkpt lat="51.007447" lon="3.545093">
        <ele>4.11</ele>
      </trkpt>
      <trkpt lat="51.00799" lon="3.545369">
        <ele>3.33</ele>
      </trkpt>
      <trkpt lat="51.011435" lon="3.546438">
        <ele>5.03</ele>
      </trkpt>
      <trkpt lat="51.014036" lon="3.547084">
        <ele>3.79</ele>
      </trkpt>
      <trkpt lat="51.0154" lon="3.547454">
        <ele>6.38</ele>
      </trkpt>
      <trkpt lat="51.015991" lon="3.547553">
        <ele>7.97</ele>
      </trkpt>
      <trkpt lat="51.016618" lon="3.547545">
        <ele>5.78</ele>
      </trkpt>
      <trkpt lat="51.020113" lon="3.547197">
        <ele>6.87</ele>
      </trkpt>
      <trkpt lat="51.020796" lon="3.547138">
        <ele>7.11</ele>
      </trkpt>
      <trkpt lat="51.02196" lon="3.547216">
        <ele>6.9</ele>
      </trkpt>
      <trkpt lat="51.022798" lon="3.547408">
        <ele>6</ele>
      </trkpt>
      <trkpt lat="51.023306" lon="3.547573">
        <ele>5.33</ele>
      </trkpt>
      <trkpt lat="51.02525" lon="3.548265">
        <ele>4.98</ele>
      </trkpt>
      <trkpt lat="51.029232" lon="3.549795">
        <ele>6</ele>
      </trkpt>
      <trkpt lat="51.029765" lon="3.550014">
        <ele>6.26</ele>
      </trkpt>
      <trkpt lat="51.030408" lon="3.550309">
        <ele>6.78</ele>
      </trkpt>
      <trkpt lat="51.030627" lon="3.55042">
        <ele>6.53</ele>
      </trkpt>
      <trkpt lat="51.032038" lon="3.551339">
        <ele>8.55</ele>
      </trkpt>
      <trkpt lat="51.032156" lon="3.551444">
        <ele>8.22</ele>
      </trkpt>
      <trkpt lat="51.032274" lon="3.551501">
        <ele>7.86</ele>
      </trkpt>
      <trkpt lat="51.033044" lon="3.552087">
        <ele>6.3</ele>
      </trkpt>
      <trkpt lat="51.033246" lon="3.552264">
        <ele>6</ele>
      </trkpt>
      <trkpt lat="51.033522" lon="3.552485">
        <ele>6.02</ele>
      </trkpt>
      <trkpt lat="51.034125" lon="3.552837">
        <ele>6.74</ele>
      </trkpt>
      <trkpt lat="51.034276" lon="3.552897">
        <ele>6.92</ele>
      </trkpt>
      <trkpt lat="51.035337" lon="3.553463">
        <ele>7.47</ele>
      </trkpt>
      <trkpt lat="51.035593" lon="3.553679">
        <ele>7.5</ele>
      </trkpt>
      <trkpt lat="51.03703" lon="3.554405">
        <ele>8.23</ele>
      </trkpt>
      <trkpt lat="51.03869" lon="3.555295">
        <ele>8.64</ele>
      </trkpt>
      <trkpt lat="51.039087" lon="3.555546">
        <ele>8.94</ele>
      </trkpt>
      <trkpt lat="51.039783" lon="3.556035">
        <ele>7.44</ele>
      </trkpt>
      <trkpt lat="51.03999" lon="3.556187">
        <ele>7.13</ele>
      </trkpt>
      <trkpt lat="51.040493" lon="3.556609">
        <ele>7.43</ele>
      </trkpt>
      <trkpt lat="51.041213" lon="3.557231">
        <ele>7.03</ele>
      </trkpt>
      <trkpt lat="51.042917" lon="3.559154">
        <ele>6.73</ele>
      </trkpt>
      <trkpt lat="51.044936" lon="3.561579">
        <ele>6.61</ele>
      </trkpt>
      <trkpt lat="51.046968" lon="3.563724">
        <ele>6.53</ele>
      </trkpt>
      <trkpt lat="51.048769" lon="3.56541">
        <ele>8</ele>
      </trkpt>
      <trkpt lat="51.049676" lon="3.566085">
        <ele>6.76</ele>
      </trkpt>
      <trkpt lat="51.050634" lon="3.566699">
        <ele>4.98</ele>
      </trkpt>
      <trkpt lat="51.051459" lon="3.567134">
        <ele>4.78</ele>
      </trkpt>
      <trkpt lat="51.052312" lon="3.567536">
        <ele>5.38</ele>
      </trkpt>
      <trkpt lat="51.055457" lon="3.56857">
        <ele>6.1</ele>
      </trkpt>
      <trkpt lat="51.057382" lon="3.56917">
        <ele>5.29</ele>
      </trkpt>
      <trkpt lat="51.057622" lon="3.569256">
        <ele>5.39</ele>
      </trkpt>
      <trkpt lat="51.05852" lon="3.569541">
        <ele>6.01</ele>
      </trkpt>
      <trkpt lat="51.062535" lon="3.570884">
        <ele>8.6</ele>
      </trkpt>
      <trkpt lat="51.064506" lon="3.571518">
        <ele>4.52</ele>
      </trkpt>
      <trkpt lat="51.065084" lon="3.571641">
        <ele>6.26</ele>
      </trkpt>
      <trkpt lat="51.065689" lon="3.571831">
        <ele>5.46</ele>
      </trkpt>
      <trkpt lat="51.06623" lon="3.572072">
        <ele>5.1</ele>
      </trkpt>
      <trkpt lat="51.0675" lon="3.572485">
        <ele>6.69</ele>
      </trkpt>
      <trkpt lat="51.067979" lon="3.57258">
        <ele>7.33</ele>
      </trkpt>
      <trkpt lat="51.068293" lon="3.572613">
        <ele>8.32</ele>
      </trkpt>
      <trkpt lat="51.068727" lon="3.572635">
        <ele>8.74</ele>
      </trkpt>
      <trkpt lat="51.069184" lon="3.572617">
        <ele>8.19</ele>
      </trkpt>
      <trkpt lat="51.069611" lon="3.572544">
        <ele>7.68</ele>
      </trkpt>
      <trkpt lat="51.069963" lon="3.572461">
        <ele>7.26</ele>
      </trkpt>
      <trkpt lat="51.070157" lon="3.572401">
        <ele>7.03</ele>
      </trkpt>
      <trkpt lat="51.070597" lon="3.572239">
        <ele>6.99</ele>
      </trkpt>
      <trkpt lat="51.071158" lon="3.571976">
        <ele>6.65</ele>
      </trkpt>
      <trkpt lat="51.071461" lon="3.571796">
        <ele>5.92</ele>
      </trkpt>
      <trkpt lat="51.071743" lon="3.571608">
        <ele>5.24</ele>
      </trkpt>
      <trkpt lat="51.072112" lon="3.571332">
        <ele>5.32</ele>
      </trkpt>
      <trkpt lat="51.072665" lon="3.570866">
        <ele>5.98</ele>
      </trkpt>
      <trkpt lat="51.073186" lon="3.570389">
        <ele>5.94</ele>
      </trkpt>
      <trkpt lat="51.073285" lon="3.57031">
        <ele>6.11</ele>
      </trkpt>
      <trkpt lat="51.073457" lon="3.570151">
        <ele>6.59</ele>
      </trkpt>
      <trkpt lat="51.074961" lon="3.568895">
        <ele>8.45</ele>
      </trkpt>
      <trkpt lat="51.079685" lon="3.564884">
        <ele>6.55</ele>
      </trkpt>
      <trkpt lat="51.080062" lon="3.564596">
        <ele>6.83</ele>
      </trkpt>
      <trkpt lat="51.080537" lon="3.564298">
        <ele>7</ele>
      </trkpt>
      <trkpt lat="51.080928" lon="3.564091">
        <ele>7</ele>
      </trkpt>
      <trkpt lat="51.081597" lon="3.563825">
        <ele>5.04</ele>
      </trkpt>
      <trkpt lat="51.081788" lon="3.563766">
        <ele>4.56</ele>
      </trkpt>
      <trkpt lat="51.08194" lon="3.563719">
        <ele>4.95</ele>
      </trkpt>
      <trkpt lat="51.082679" lon="3.563615">
        <ele>8.24</ele>
      </trkpt>
      <trkpt lat="51.084019" lon="3.563462">
        <ele>8.05</ele>
      </trkpt>
      <trkpt lat="51.085619" lon="3.563319">
        <ele>6.94</ele>
      </trkpt>
      <trkpt lat="51.087148" lon="3.563231">
        <ele>6.8</ele>
      </trkpt>
      <trkpt lat="51.087684" lon="3.563235">
        <ele>6.17</ele>
      </trkpt>
      <trkpt lat="51.088094" lon="3.563291">
        <ele>6.24</ele>
      </trkpt>
      <trkpt lat="51.088494" lon="3.563371">
        <ele>6.33</ele>
      </trkpt>
      <trkpt lat="51.088836" lon="3.563466">
        <ele>6.45</ele>
      </trkpt>
      <trkpt lat="51.090535" lon="3.564055">
        <ele>4.58</ele>
      </trkpt>
      <trkpt lat="51.091105" lon="3.564233">
        <ele>4.04</ele>
      </trkpt>
      <trkpt lat="51.09177" lon="3.564482">
        <ele>4.6</ele>
      </trkpt>
      <trkpt lat="51.092525" lon="3.564739">
        <ele>4.21</ele>
      </trkpt>
      <trkpt lat="51.093046" lon="3.564935">
        <ele>4.14</ele>
      </trkpt>
      <trkpt lat="51.093342" lon="3.565115">
        <ele>4.03</ele>
      </trkpt>
      <trkpt lat="51.093542" lon="3.565292">
        <ele>3.72</ele>
      </trkpt>
      <trkpt lat="51.093721" lon="3.56549">
        <ele>3.25</ele>
      </trkpt>
      <trkpt lat="51.093849" lon="3.565663">
        <ele>3.05</ele>
      </trkpt>
      <trkpt lat="51.093958" lon="3.565831">
        <ele>3.13</ele>
      </trkpt>
      <trkpt lat="51.094092" lon="3.566079">
        <ele>3.18</ele>
      </trkpt>
      <trkpt lat="51.094152" lon="3.566207">
        <ele>3.17</ele>
      </trkpt>
      <trkpt lat="51.094255" lon="3.566464">
        <ele>3.12</ele>
      </trkpt>
      <trkpt lat="51.09437" lon="3.56683">
        <ele>3.06</ele>
      </trkpt>
      <trkpt lat="51.094467" lon="3.567256">
        <ele>3.28</ele>
      </trkpt>
      <trkpt lat="51.094522" lon="3.567649">
        <ele>3.41</ele>
      </trkpt>
      <trkpt lat="51.094543" lon="3.568127">
        <ele>3.46</ele>
      </trkpt>
      <trkpt lat="51.094549" lon="3.568951">
        <ele>3.27</ele>
      </trkpt>
      <trkpt lat="51.094451" lon="3.5718">
        <ele>4.5</ele>
      </trkpt>
      <trkpt lat="51.094458" lon="3.572139">
        <ele>4.04</ele>
      </trkpt>
      <trkpt lat="51.094387" lon="3.573175">
        <ele>3.87</ele>
      </trkpt>
      <trkpt lat="51.094297" lon="3.574349">
        <ele>3.19</ele>
      </trkpt>
      <trkpt lat="51.094243" lon="3.574953">
        <ele>3.15</ele>
      </trkpt>
      <trkpt lat="51.094024" lon="3.57695">
        <ele>5.04</ele>
      </trkpt>
      <trkpt lat="51.093728" lon="3.579415">
        <ele>6.16</ele>
      </trkpt>
      <trkpt lat="51.093512" lon="3.581028">
        <ele>4.99</ele>
      </trkpt>
      <trkpt lat="51.092943" lon="3.585522">
        <ele>3.22</ele>
      </trkpt>
      <trkpt lat="51.092777" lon="3.587156">
        <ele>2.44</ele>
      </trkpt>
      <trkpt lat="51.092385" lon="3.591359">
        <ele>4.03</ele>
      </trkpt>
      <trkpt lat="51.092189" lon="3.593188">
        <ele>3.76</ele>
      </trkpt>
      <trkpt lat="51.09208" lon="3.593903">
        <ele>3.74</ele>
      </trkpt>
      <trkpt lat="51.091933" lon="3.594728">
        <ele>3.9</ele>
      </trkpt>
      <trkpt lat="51.091794" lon="3.5954">
        <ele>3.34</ele>
      </trkpt>
      <trkpt lat="51.091325" lon="3.59745">
        <ele>3.63</ele>
      </trkpt>
      <trkpt lat="51.091171" lon="3.598157">
        <ele>3.99</ele>
      </trkpt>
      <trkpt lat="51.090978" lon="3.599211">
        <ele>3.83</ele>
      </trkpt>
      <trkpt lat="51.090883" lon="3.599816">
        <ele>3.36</ele>
      </trkpt>
      <trkpt lat="51.090792" lon="3.600515">
        <ele>2.01</ele>
      </trkpt>
      <trkpt lat="51.09068" lon="3.601668">
        <ele>2.32</ele>
      </trkpt>
      <trkpt lat="51.090612" lon="3.602938">
        <ele>4.16</ele>
      </trkpt>
      <trkpt lat="51.090584" lon="3.604057">
        <ele>5.89</ele>
      </trkpt>
      <trkpt lat="51.090655" lon="3.60731">
        <ele>3.46</ele>
      </trkpt>
      <trkpt lat="51.090766" lon="3.610832">
        <ele>5</ele>
      </trkpt>
      <trkpt lat="51.090942" lon="3.615837">
        <ele>4.11</ele>
      </trkpt>
      <trkpt lat="51.090985" lon="3.617132">
        <ele>4.91</ele>
      </trkpt>
      <trkpt lat="51.091012" lon="3.618317">
        <ele>5.25</ele>
      </trkpt>
      <trkpt lat="51.091704" lon="3.636297">
        <ele>3.8</ele>
      </trkpt>
    </trkseg>
  </trk>
</gpx>
